{
"type": "FeatureCollection",
"name": "metro1",
"crs": { "type": "name", "properties": { "name": "urn:ogc:def:crs:OGC:1.3:CRS84" } },
"features": [
{ "type": "Feature", "properties": { "colour": "blue", "name": "Ratusz-Arsenał" }, "geometry": { "type": "Point", "coordinates": [ 21.0008823, 52.2452163 ] } },
{ "type": "Feature", "properties": { "colour": "blue", "name": "Marymont" }, "geometry": { "type": "Point", "coordinates": [ 20.9717196, 52.2716615 ] } },
{ "type": "Feature", "properties": { "colour": "blue", "name": "Stare Bielany" }, "geometry": { "type": "Point", "coordinates": [ 20.9493596, 52.2818172 ] } },
{ "type": "Feature", "properties": { "colour": "blue", "name": "Wawrzyszew" }, "geometry": { "type": "Point", "coordinates": [ 20.9395965, 52.2863179 ] } },
{ "type": "Feature", "properties": { "colour": "blue", "name": "Młociny" }, "geometry": { "type": "Point", "coordinates": [ 20.9298695, 52.2907599 ] } },
{ "type": "Feature", "properties": { "colour": "blue", "name": "Słodowiec" }, "geometry": { "type": "Point", "coordinates": [ 20.9602351, 52.2768253 ] } },
{ "type": "Feature", "properties": { "colour": "red", "name": "Dworzec Wileński" }, "geometry": { "type": "Point", "coordinates": [ 21.0355034, 52.2540622 ] } },
{ "type": "Feature", "properties": { "colour": "red", "name": "Stadion Narodowy" }, "geometry": { "type": "Point", "coordinates": [ 21.0428426, 52.2469808 ] } },
{ "type": "Feature", "properties": { "colour": "red", "name": "Centrum Nauki Kopernik" }, "geometry": { "type": "Point", "coordinates": [ 21.0317878, 52.2399148 ] } },
{ "type": "Feature", "properties": { "colour": "red", "name": "Nowy Świat-Uniwersytet" }, "geometry": { "type": "Point", "coordinates": [ 21.016788, 52.236833 ] } },
{ "type": "Feature", "properties": { "colour": "red", "name": "Rondo ONZ" }, "geometry": { "type": "Point", "coordinates": [ 20.9982821, 52.2331101 ] } },
{ "type": "Feature", "properties": { "colour": "red", "name": "Rondo Daszyńskiego" }, "geometry": { "type": "Point", "coordinates": [ 20.9828946, 52.2300827 ] } },
{ "type": "Feature", "properties": { "colour": "blue", "name": "Kabaty" }, "geometry": { "type": "Point", "coordinates": [ 21.0650711, 52.1320765 ] } },
{ "type": "Feature", "properties": { "colour": "blue", "name": "Stokłosy" }, "geometry": { "type": "Point", "coordinates": [ 21.0347233, 52.1560759 ] } },
{ "type": "Feature", "properties": { "colour": "blue", "name": "Natolin" }, "geometry": { "type": "Point", "coordinates": [ 21.0564351, 52.1411007 ] } },
{ "type": "Feature", "properties": { "colour": "blue", "name": "Imielin" }, "geometry": { "type": "Point", "coordinates": [ 21.0461062, 52.1493 ] } },
{ "type": "Feature", "properties": { "colour": "blue", "name": "Ursynów" }, "geometry": { "type": "Point", "coordinates": [ 21.0276283, 52.1620456 ] } },
{ "type": "Feature", "properties": { "colour": "blue", "name": "Służew" }, "geometry": { "type": "Point", "coordinates": [ 21.0262866, 52.1727624 ] } },
{ "type": "Feature", "properties": { "colour": "blue", "name": "Racławicka" }, "geometry": { "type": "Point", "coordinates": [ 21.0121943, 52.1989416 ] } },
{ "type": "Feature", "properties": { "colour": "blue", "name": "Wierzbno" }, "geometry": { "type": "Point", "coordinates": [ 21.016599, 52.1899435 ] } },
{ "type": "Feature", "properties": { "colour": "blue", "name": "Wilanowska" }, "geometry": { "type": "Point", "coordinates": [ 21.0231369, 52.1818 ] } },
{ "type": "Feature", "properties": { "colour": "blue", "name": "Pole Mokotowskie" }, "geometry": { "type": "Point", "coordinates": [ 21.0077851, 52.208529 ] } },
{ "type": "Feature", "properties": { "colour": "blue", "name": "Politechnika" }, "geometry": { "type": "Point", "coordinates": [ 21.0153582, 52.2184572 ] } },
{ "type": "Feature", "properties": { "colour": "blue", "name": "Centrum" }, "geometry": { "type": "Point", "coordinates": [ 21.0101683, 52.2310122 ] } },
{ "type": "Feature", "properties": { "colour": "blue", "name": "Dworzec Gdański" }, "geometry": { "type": "Point", "coordinates": [ 20.9941857, 52.2580586 ] } },
{ "type": "Feature", "properties": { "colour": "blue", "name": "Plac Wilsona" }, "geometry": { "type": "Point", "coordinates": [ 20.9843885, 52.2692519 ] } },
{ "type": "Feature", "properties": { "colour": "red", "name": "Płocka" }, "geometry": { "type": "Point", "coordinates": [ 20.9663854, 52.2324546 ] } },
{ "type": "Feature", "properties": { "colour": "red", "name": "Trocka" }, "geometry": { "type": "Point", "coordinates": [ 21.0550586, 52.2751021 ] } },
{ "type": "Feature", "properties": { "colour": "both", "name": "Świętokrzyska" }, "geometry": { "type": "Point", "coordinates": [ 21.0078988, 52.2350954 ] } },
{ "type": "Feature", "properties": { "colour": "red", "name": "Księcia Janusza" }, "geometry": { "type": "Point", "coordinates": [ 20.9443771, 52.2391822 ] } },
{ "type": "Feature", "properties": { "colour": "red", "name": "Młynów" }, "geometry": { "type": "Point", "coordinates": [ 20.9601093, 52.2376798 ] } },
{ "type": "Feature", "properties": { "colour": "red", "name": "Szwedzka" }, "geometry": { "type": "Point", "coordinates": [ 21.0455232, 52.2634709 ] } },
{ "type": "Feature", "properties": { "colour": "red", "name": "Targówek Mieszkaniowy" }, "geometry": { "type": "Point", "coordinates": [ 21.0513658, 52.2692518 ] } },
{ "type": "Feature", "properties": { "colour": "red", "name": "Bemowo" }, "geometry": { "type": "Point", "coordinates": [ 20.915319, 52.2391847 ] } },
{ "type": "Feature", "properties": { "colour": "red", "name": "Ulrychów" }, "geometry": { "type": "Point", "coordinates": [ 20.9300041, 52.240322 ] } },
{ "type": "Feature", "properties": { "colour": "red", "name": "Bródno" }, "geometry": { "type": "Point", "coordinates": [ 21.0289387, 52.293585 ] } },
{ "type": "Feature", "properties": { "colour": "red", "name": "Kondratowicza" }, "geometry": { "type": "Point", "coordinates": [ 21.0486889, 52.2920848 ] } },
{ "type": "Feature", "properties": { "colour": "red", "name": "Zacisze" }, "geometry": { "type": "Point", "coordinates": [ 21.062148, 52.2837496 ] } }
]
}
