{
"type": "FeatureCollection",
"name": "supermarket",
"crs": { "type": "name", "properties": { "name": "urn:ogc:def:crs:OGC:1.3:CRS84" } },
"features": [
{ "type": "Feature", "properties": { "id": "relation/2144780" }, "geometry": { "type": "Point", "coordinates": [ 20.94234097920776, 52.246249909869775 ] } },
{ "type": "Feature", "properties": { "id": "relation/7300846" }, "geometry": { "type": "Point", "coordinates": [ 21.110887470387546, 52.16599446947599 ] } },
{ "type": "Feature", "properties": { "id": "relation/14644120" }, "geometry": { "type": "Point", "coordinates": [ 21.070443166018993, 52.242582914507537 ] } },
{ "type": "Feature", "properties": { "id": "relation/15081291" }, "geometry": { "type": "Point", "coordinates": [ 21.039994768786638, 52.250062356762776 ] } },
{ "type": "Feature", "properties": { "id": "relation/18230915" }, "geometry": { "type": "Point", "coordinates": [ 21.005057490710843, 52.217185267040286 ] } },
{ "type": "Feature", "properties": { "id": "way/22717550" }, "geometry": { "type": "Point", "coordinates": [ 20.931945965030131, 52.241976581052086 ] } },
{ "type": "Feature", "properties": { "id": "way/22717599" }, "geometry": { "type": "Point", "coordinates": [ 20.930946410006307, 52.263903741470358 ] } },
{ "type": "Feature", "properties": { "id": "way/23653206" }, "geometry": { "type": "Point", "coordinates": [ 21.119439289943887, 52.23527173008317 ] } },
{ "type": "Feature", "properties": { "id": "way/24924674" }, "geometry": { "type": "Point", "coordinates": [ 21.057918986562512, 52.30392030290156 ] } },
{ "type": "Feature", "properties": { "id": "way/25822244" }, "geometry": { "type": "Point", "coordinates": [ 21.004343965072266, 52.179885370901744 ] } },
{ "type": "Feature", "properties": { "id": "way/25911176" }, "geometry": { "type": "Point", "coordinates": [ 21.010306536835042, 52.233235659507073 ] } },
{ "type": "Feature", "properties": { "id": "way/25914883" }, "geometry": { "type": "Point", "coordinates": [ 20.926454928465606, 52.223869910044563 ] } },
{ "type": "Feature", "properties": { "id": "way/27332880" }, "geometry": { "type": "Point", "coordinates": [ 21.063220143686262, 52.14202197628294 ] } },
{ "type": "Feature", "properties": { "id": "way/27338989" }, "geometry": { "type": "Point", "coordinates": [ 21.035831051059578, 52.156212216666795 ] } },
{ "type": "Feature", "properties": { "id": "way/27469143" }, "geometry": { "type": "Point", "coordinates": [ 21.093622267314089, 52.229327272342424 ] } },
{ "type": "Feature", "properties": { "id": "way/27586344" }, "geometry": { "type": "Point", "coordinates": [ 20.955739963043449, 52.212723534693112 ] } },
{ "type": "Feature", "properties": { "id": "way/28410307" }, "geometry": { "type": "Point", "coordinates": [ 20.95042573270403, 52.271582660852019 ] } },
{ "type": "Feature", "properties": { "id": "way/28798022" }, "geometry": { "type": "Point", "coordinates": [ 20.982463662636853, 52.197684909383824 ] } },
{ "type": "Feature", "properties": { "id": "way/29115679" }, "geometry": { "type": "Point", "coordinates": [ 20.883866485630744, 52.214294257015332 ] } },
{ "type": "Feature", "properties": { "id": "way/29300128" }, "geometry": { "type": "Point", "coordinates": [ 21.026602645219945, 52.141172145131435 ] } },
{ "type": "Feature", "properties": { "id": "way/29300165" }, "geometry": { "type": "Point", "coordinates": [ 21.042803247450049, 52.142016106338183 ] } },
{ "type": "Feature", "properties": { "id": "way/29975740" }, "geometry": { "type": "Point", "coordinates": [ 20.950990517578106, 52.213067265573748 ] } },
{ "type": "Feature", "properties": { "id": "way/30059916" }, "geometry": { "type": "Point", "coordinates": [ 21.085388134715505, 52.246409147589716 ] } },
{ "type": "Feature", "properties": { "id": "way/30300271" }, "geometry": { "type": "Point", "coordinates": [ 20.977037080067952, 52.218409457839982 ] } },
{ "type": "Feature", "properties": { "id": "way/30322671" }, "geometry": { "type": "Point", "coordinates": [ 20.97000425, 52.2086255 ] } },
{ "type": "Feature", "properties": { "id": "way/30611687" }, "geometry": { "type": "Point", "coordinates": [ 21.00242080169506, 52.230114687202239 ] } },
{ "type": "Feature", "properties": { "id": "way/30620655" }, "geometry": { "type": "Point", "coordinates": [ 21.020653444840459, 52.230497740463363 ] } },
{ "type": "Feature", "properties": { "id": "way/30666637" }, "geometry": { "type": "Point", "coordinates": [ 21.01400445, 52.175601 ] } },
{ "type": "Feature", "properties": { "id": "way/30666663" }, "geometry": { "type": "Point", "coordinates": [ 21.025072727991155, 52.169979918977134 ] } },
{ "type": "Feature", "properties": { "id": "way/30957351" }, "geometry": { "type": "Point", "coordinates": [ 21.083086373533749, 52.226730760136135 ] } },
{ "type": "Feature", "properties": { "id": "way/31004381" }, "geometry": { "type": "Point", "coordinates": [ 20.951311103172152, 52.209333351733335 ] } },
{ "type": "Feature", "properties": { "id": "way/31059999" }, "geometry": { "type": "Point", "coordinates": [ 21.106027884150869, 52.235087103611058 ] } },
{ "type": "Feature", "properties": { "id": "way/31060034" }, "geometry": { "type": "Point", "coordinates": [ 21.109456096455212, 52.238934264026462 ] } },
{ "type": "Feature", "properties": { "id": "way/31331620" }, "geometry": { "type": "Point", "coordinates": [ 21.050643136653132, 52.263279260917557 ] } },
{ "type": "Feature", "properties": { "id": "way/32760114" }, "geometry": { "type": "Point", "coordinates": [ 21.033627960235396, 52.235065085995956 ] } },
{ "type": "Feature", "properties": { "id": "way/34423977" }, "geometry": { "type": "Point", "coordinates": [ 21.09793580710857, 52.249421329130115 ] } },
{ "type": "Feature", "properties": { "id": "way/34428195" }, "geometry": { "type": "Point", "coordinates": [ 20.958541457509472, 52.189421431537312 ] } },
{ "type": "Feature", "properties": { "id": "way/34435356" }, "geometry": { "type": "Point", "coordinates": [ 20.93458452100818, 52.171235700532712 ] } },
{ "type": "Feature", "properties": { "id": "way/34435357" }, "geometry": { "type": "Point", "coordinates": [ 20.93378950083919, 52.169882469352672 ] } },
{ "type": "Feature", "properties": { "id": "way/34982153" }, "geometry": { "type": "Point", "coordinates": [ 20.906935576087086, 52.239954467180901 ] } },
{ "type": "Feature", "properties": { "id": "way/34988601" }, "geometry": { "type": "Point", "coordinates": [ 20.914244781775718, 52.228351544773339 ] } },
{ "type": "Feature", "properties": { "id": "way/39230884" }, "geometry": { "type": "Point", "coordinates": [ 21.056819087140482, 52.231318236013571 ] } },
{ "type": "Feature", "properties": { "id": "way/41415064" }, "geometry": { "type": "Point", "coordinates": [ 20.894612092058328, 52.201615921468672 ] } },
{ "type": "Feature", "properties": { "id": "way/41927532" }, "geometry": { "type": "Point", "coordinates": [ 20.984547329337808, 52.257400707132582 ] } },
{ "type": "Feature", "properties": { "id": "way/42250196" }, "geometry": { "type": "Point", "coordinates": [ 20.980399734038407, 52.278094359761312 ] } },
{ "type": "Feature", "properties": { "id": "way/59421803" }, "geometry": { "type": "Point", "coordinates": [ 20.918698798591926, 52.251323280811938 ] } },
{ "type": "Feature", "properties": { "id": "way/61190204" }, "geometry": { "type": "Point", "coordinates": [ 21.041176887716134, 52.153365454004025 ] } },
{ "type": "Feature", "properties": { "id": "way/62172885" }, "geometry": { "type": "Point", "coordinates": [ 21.098965798490955, 52.242276695338205 ] } },
{ "type": "Feature", "properties": { "id": "way/62202278" }, "geometry": { "type": "Point", "coordinates": [ 21.09377880871412, 52.232581048083063 ] } },
{ "type": "Feature", "properties": { "id": "way/68922712" }, "geometry": { "type": "Point", "coordinates": [ 21.040253332227039, 52.150114219905795 ] } },
{ "type": "Feature", "properties": { "id": "way/69365957" }, "geometry": { "type": "Point", "coordinates": [ 21.036831640174793, 52.1443310111367 ] } },
{ "type": "Feature", "properties": { "id": "way/69793202" }, "geometry": { "type": "Point", "coordinates": [ 20.963510792580749, 52.314863893643512 ] } },
{ "type": "Feature", "properties": { "id": "way/70990513" }, "geometry": { "type": "Point", "coordinates": [ 20.949333374347429, 52.270980330917531 ] } },
{ "type": "Feature", "properties": { "id": "way/70993410" }, "geometry": { "type": "Point", "coordinates": [ 20.94905987116287, 52.276479318557278 ] } },
{ "type": "Feature", "properties": { "id": "way/72700774" }, "geometry": { "type": "Point", "coordinates": [ 20.949914319243756, 52.269242596451569 ] } },
{ "type": "Feature", "properties": { "id": "way/80428485" }, "geometry": { "type": "Point", "coordinates": [ 21.041508451956755, 52.257980646864652 ] } },
{ "type": "Feature", "properties": { "id": "way/80851003" }, "geometry": { "type": "Point", "coordinates": [ 20.929998720281226, 52.27815698354847 ] } },
{ "type": "Feature", "properties": { "id": "way/80851413" }, "geometry": { "type": "Point", "coordinates": [ 20.922574308461403, 52.276322850184307 ] } },
{ "type": "Feature", "properties": { "id": "way/92143100" }, "geometry": { "type": "Point", "coordinates": [ 20.979669758338378, 52.246746719789556 ] } },
{ "type": "Feature", "properties": { "id": "way/95030898" }, "geometry": { "type": "Point", "coordinates": [ 20.989186809035107, 52.240781408312628 ] } },
{ "type": "Feature", "properties": { "id": "way/95261371" }, "geometry": { "type": "Point", "coordinates": [ 20.9511068771358, 52.280372108478971 ] } },
{ "type": "Feature", "properties": { "id": "way/99232855" }, "geometry": { "type": "Point", "coordinates": [ 21.020274633279794, 52.158817374196033 ] } },
{ "type": "Feature", "properties": { "id": "way/103509577" }, "geometry": { "type": "Point", "coordinates": [ 20.959610933019011, 52.192848416775476 ] } },
{ "type": "Feature", "properties": { "id": "way/105051520" }, "geometry": { "type": "Point", "coordinates": [ 20.96118479253143, 52.31800401745523 ] } },
{ "type": "Feature", "properties": { "id": "way/107182992" }, "geometry": { "type": "Point", "coordinates": [ 20.957788181095651, 52.191375397336152 ] } },
{ "type": "Feature", "properties": { "id": "way/107555372" }, "geometry": { "type": "Point", "coordinates": [ 21.237871954415006, 52.218321100483195 ] } },
{ "type": "Feature", "properties": { "id": "way/109459213" }, "geometry": { "type": "Point", "coordinates": [ 20.963168243624377, 52.334639910725464 ] } },
{ "type": "Feature", "properties": { "id": "way/110432763" }, "geometry": { "type": "Point", "coordinates": [ 20.914016053197532, 52.240057745650354 ] } },
{ "type": "Feature", "properties": { "id": "way/111787414" }, "geometry": { "type": "Point", "coordinates": [ 20.861921565211542, 52.191636032724567 ] } },
{ "type": "Feature", "properties": { "id": "way/113610877" }, "geometry": { "type": "Point", "coordinates": [ 20.896868113250218, 52.195313304597477 ] } },
{ "type": "Feature", "properties": { "id": "way/113937060" }, "geometry": { "type": "Point", "coordinates": [ 20.863015156402795, 52.195474982321329 ] } },
{ "type": "Feature", "properties": { "id": "way/113937062" }, "geometry": { "type": "Point", "coordinates": [ 20.937417107709017, 52.235525683877086 ] } },
{ "type": "Feature", "properties": { "id": "way/114573578" }, "geometry": { "type": "Point", "coordinates": [ 20.88718728424621, 52.189481224306135 ] } },
{ "type": "Feature", "properties": { "id": "way/114857783" }, "geometry": { "type": "Point", "coordinates": [ 21.053589414452741, 52.139560864058261 ] } },
{ "type": "Feature", "properties": { "id": "way/116410146" }, "geometry": { "type": "Point", "coordinates": [ 21.02393962889067, 52.182623266449035 ] } },
{ "type": "Feature", "properties": { "id": "way/116569762" }, "geometry": { "type": "Point", "coordinates": [ 20.900511249904586, 52.188123760066865 ] } },
{ "type": "Feature", "properties": { "id": "way/118974761" }, "geometry": { "type": "Point", "coordinates": [ 20.868944605741017, 52.198872590495945 ] } },
{ "type": "Feature", "properties": { "id": "way/119444202" }, "geometry": { "type": "Point", "coordinates": [ 20.939115911420842, 52.325240579044788 ] } },
{ "type": "Feature", "properties": { "id": "way/120240696" }, "geometry": { "type": "Point", "coordinates": [ 21.061008125340372, 52.187568218788826 ] } },
{ "type": "Feature", "properties": { "id": "way/121674963" }, "geometry": { "type": "Point", "coordinates": [ 21.033504330978221, 52.295841948511764 ] } },
{ "type": "Feature", "properties": { "id": "way/122643939" }, "geometry": { "type": "Point", "coordinates": [ 21.030764620229558, 52.289571710635606 ] } },
{ "type": "Feature", "properties": { "id": "way/128450834" }, "geometry": { "type": "Point", "coordinates": [ 20.893329663867714, 52.183212389628395 ] } },
{ "type": "Feature", "properties": { "id": "way/128969605" }, "geometry": { "type": "Point", "coordinates": [ 20.917523341006348, 52.198250854145464 ] } },
{ "type": "Feature", "properties": { "id": "way/129140111" }, "geometry": { "type": "Point", "coordinates": [ 20.915752231884134, 52.224716462612967 ] } },
{ "type": "Feature", "properties": { "id": "way/129413942" }, "geometry": { "type": "Point", "coordinates": [ 20.966374803464031, 52.211158275221294 ] } },
{ "type": "Feature", "properties": { "id": "way/132142886" }, "geometry": { "type": "Point", "coordinates": [ 21.037920606439783, 52.25511408711057 ] } },
{ "type": "Feature", "properties": { "id": "way/135731552" }, "geometry": { "type": "Point", "coordinates": [ 21.017432493092592, 52.272715944341776 ] } },
{ "type": "Feature", "properties": { "id": "way/136280380" }, "geometry": { "type": "Point", "coordinates": [ 21.0554905, 52.27995215 ] } },
{ "type": "Feature", "properties": { "id": "way/136287829" }, "geometry": { "type": "Point", "coordinates": [ 21.055575216468696, 52.275967936348572 ] } },
{ "type": "Feature", "properties": { "id": "way/147280744" }, "geometry": { "type": "Point", "coordinates": [ 20.969705460329916, 52.200420391921178 ] } },
{ "type": "Feature", "properties": { "id": "way/149581525" }, "geometry": { "type": "Point", "coordinates": [ 21.022140131649063, 52.294411428879464 ] } },
{ "type": "Feature", "properties": { "id": "way/163381031" }, "geometry": { "type": "Point", "coordinates": [ 20.96382850623413, 52.267200033408443 ] } },
{ "type": "Feature", "properties": { "id": "way/165443300" }, "geometry": { "type": "Point", "coordinates": [ 20.97201374711889, 52.271268078943415 ] } },
{ "type": "Feature", "properties": { "id": "way/165832726" }, "geometry": { "type": "Point", "coordinates": [ 21.046936475797033, 52.177185888442153 ] } },
{ "type": "Feature", "properties": { "id": "way/165832737" }, "geometry": { "type": "Point", "coordinates": [ 21.0506983, 52.1751354 ] } },
{ "type": "Feature", "properties": { "id": "way/166954992" }, "geometry": { "type": "Point", "coordinates": [ 21.032571159392734, 52.283249422554448 ] } },
{ "type": "Feature", "properties": { "id": "way/168565271" }, "geometry": { "type": "Point", "coordinates": [ 20.960928358248729, 52.274155868350121 ] } },
{ "type": "Feature", "properties": { "id": "way/168565689" }, "geometry": { "type": "Point", "coordinates": [ 20.960110757529552, 52.272004478749352 ] } },
{ "type": "Feature", "properties": { "id": "way/169430807" }, "geometry": { "type": "Point", "coordinates": [ 20.932180377204823, 52.270040103908087 ] } },
{ "type": "Feature", "properties": { "id": "way/173043959" }, "geometry": { "type": "Point", "coordinates": [ 21.063822665603606, 52.17494246698066 ] } },
{ "type": "Feature", "properties": { "id": "way/173126368" }, "geometry": { "type": "Point", "coordinates": [ 20.973009595653238, 52.282808850722859 ] } },
{ "type": "Feature", "properties": { "id": "way/173131334" }, "geometry": { "type": "Point", "coordinates": [ 20.938479113406597, 52.291748755388603 ] } },
{ "type": "Feature", "properties": { "id": "way/173211400" }, "geometry": { "type": "Point", "coordinates": [ 21.171637877716265, 52.160542478324807 ] } },
{ "type": "Feature", "properties": { "id": "way/173973429" }, "geometry": { "type": "Point", "coordinates": [ 21.047467668004945, 52.276896069373578 ] } },
{ "type": "Feature", "properties": { "id": "way/179344782" }, "geometry": { "type": "Point", "coordinates": [ 21.062746821190562, 52.307814763296946 ] } },
{ "type": "Feature", "properties": { "id": "way/195232059" }, "geometry": { "type": "Point", "coordinates": [ 20.969690607795847, 52.256531305812153 ] } },
{ "type": "Feature", "properties": { "id": "way/196695069" }, "geometry": { "type": "Point", "coordinates": [ 20.98492663603767, 52.259954346227374 ] } },
{ "type": "Feature", "properties": { "id": "way/207173358" }, "geometry": { "type": "Point", "coordinates": [ 20.920145017887194, 52.208415501107517 ] } },
{ "type": "Feature", "properties": { "id": "way/210276753" }, "geometry": { "type": "Point", "coordinates": [ 20.928249624810029, 52.262811292054032 ] } },
{ "type": "Feature", "properties": { "id": "way/214675190" }, "geometry": { "type": "Point", "coordinates": [ 20.898854808035288, 52.236102004000387 ] } },
{ "type": "Feature", "properties": { "id": "way/218691338" }, "geometry": { "type": "Point", "coordinates": [ 20.938831833163491, 52.25117831623146 ] } },
{ "type": "Feature", "properties": { "id": "way/218854782" }, "geometry": { "type": "Point", "coordinates": [ 20.948288598287853, 52.245412856904053 ] } },
{ "type": "Feature", "properties": { "id": "way/224728769" }, "geometry": { "type": "Point", "coordinates": [ 21.063889081182499, 52.312192378147522 ] } },
{ "type": "Feature", "properties": { "id": "way/224728770" }, "geometry": { "type": "Point", "coordinates": [ 21.062886972373214, 52.312730502713478 ] } },
{ "type": "Feature", "properties": { "id": "way/227140618" }, "geometry": { "type": "Point", "coordinates": [ 21.031428209501883, 52.285893450900822 ] } },
{ "type": "Feature", "properties": { "id": "way/228393251" }, "geometry": { "type": "Point", "coordinates": [ 21.025115497992338, 52.299609032180719 ] } },
{ "type": "Feature", "properties": { "id": "way/229146513" }, "geometry": { "type": "Point", "coordinates": [ 21.079046849073258, 52.281452108992703 ] } },
{ "type": "Feature", "properties": { "id": "way/233962761" }, "geometry": { "type": "Point", "coordinates": [ 20.936854574866345, 52.198952549779243 ] } },
{ "type": "Feature", "properties": { "id": "way/238299266" }, "geometry": { "type": "Point", "coordinates": [ 21.051535989140152, 52.13371997311399 ] } },
{ "type": "Feature", "properties": { "id": "way/239977871" }, "geometry": { "type": "Point", "coordinates": [ 20.965979299319216, 52.319719891370887 ] } },
{ "type": "Feature", "properties": { "id": "way/240385174" }, "geometry": { "type": "Point", "coordinates": [ 20.931445115942722, 52.305488705769655 ] } },
{ "type": "Feature", "properties": { "id": "way/252178787" }, "geometry": { "type": "Point", "coordinates": [ 20.946191007677431, 52.331702093296897 ] } },
{ "type": "Feature", "properties": { "id": "way/253832707" }, "geometry": { "type": "Point", "coordinates": [ 21.223498230374929, 52.222205711244406 ] } },
{ "type": "Feature", "properties": { "id": "way/254148898" }, "geometry": { "type": "Point", "coordinates": [ 20.963449728065495, 52.335936411046042 ] } },
{ "type": "Feature", "properties": { "id": "way/254262558" }, "geometry": { "type": "Point", "coordinates": [ 20.893160034107076, 52.217423420196006 ] } },
{ "type": "Feature", "properties": { "id": "way/269945806" }, "geometry": { "type": "Point", "coordinates": [ 20.899027977259074, 52.18861592579853 ] } },
{ "type": "Feature", "properties": { "id": "way/277010211" }, "geometry": { "type": "Point", "coordinates": [ 20.911260030047, 52.231585876817142 ] } },
{ "type": "Feature", "properties": { "id": "way/284842320" }, "geometry": { "type": "Point", "coordinates": [ 21.160695263557219, 52.242358480351527 ] } },
{ "type": "Feature", "properties": { "id": "way/288935501" }, "geometry": { "type": "Point", "coordinates": [ 21.002517120183761, 52.228774958085836 ] } },
{ "type": "Feature", "properties": { "id": "way/298000830" }, "geometry": { "type": "Point", "coordinates": [ 21.120972456475382, 52.200216645958129 ] } },
{ "type": "Feature", "properties": { "id": "way/300211010" }, "geometry": { "type": "Point", "coordinates": [ 20.911985363868148, 52.236967048340254 ] } },
{ "type": "Feature", "properties": { "id": "way/300221865" }, "geometry": { "type": "Point", "coordinates": [ 20.871488398970296, 52.194609753013381 ] } },
{ "type": "Feature", "properties": { "id": "way/300243414" }, "geometry": { "type": "Point", "coordinates": [ 20.866543903848559, 52.196316242047935 ] } },
{ "type": "Feature", "properties": { "id": "way/300976392" }, "geometry": { "type": "Point", "coordinates": [ 21.189970754757752, 52.181705126901328 ] } },
{ "type": "Feature", "properties": { "id": "way/302201111" }, "geometry": { "type": "Point", "coordinates": [ 20.995584057376423, 52.108476053914778 ] } },
{ "type": "Feature", "properties": { "id": "way/306692173" }, "geometry": { "type": "Point", "coordinates": [ 20.951954845354596, 52.192824490844792 ] } },
{ "type": "Feature", "properties": { "id": "way/307801789" }, "geometry": { "type": "Point", "coordinates": [ 21.051917853086223, 52.317822747683742 ] } },
{ "type": "Feature", "properties": { "id": "way/309655074" }, "geometry": { "type": "Point", "coordinates": [ 20.895978824840054, 52.229966222928901 ] } },
{ "type": "Feature", "properties": { "id": "way/318659746" }, "geometry": { "type": "Point", "coordinates": [ 21.067844292170324, 52.319723115318716 ] } },
{ "type": "Feature", "properties": { "id": "way/323884876" }, "geometry": { "type": "Point", "coordinates": [ 21.070264416122015, 52.242759517124902 ] } },
{ "type": "Feature", "properties": { "id": "way/325226134" }, "geometry": { "type": "Point", "coordinates": [ 20.91458225141265, 52.250769488386169 ] } },
{ "type": "Feature", "properties": { "id": "way/345346778" }, "geometry": { "type": "Point", "coordinates": [ 21.084206499115425, 52.230011526443612 ] } },
{ "type": "Feature", "properties": { "id": "way/350962669" }, "geometry": { "type": "Point", "coordinates": [ 21.010947598686776, 52.232164726145434 ] } },
{ "type": "Feature", "properties": { "id": "way/350962670" }, "geometry": { "type": "Point", "coordinates": [ 21.011519461480763, 52.231208072617477 ] } },
{ "type": "Feature", "properties": { "id": "way/362315174" }, "geometry": { "type": "Point", "coordinates": [ 21.078419989960228, 52.305154962902193 ] } },
{ "type": "Feature", "properties": { "id": "way/367587737" }, "geometry": { "type": "Point", "coordinates": [ 21.018764480868182, 52.230666161377194 ] } },
{ "type": "Feature", "properties": { "id": "way/376851836" }, "geometry": { "type": "Point", "coordinates": [ 20.929329667895779, 52.263034900263101 ] } },
{ "type": "Feature", "properties": { "id": "way/377957242" }, "geometry": { "type": "Point", "coordinates": [ 21.223785394466724, 52.218900872430531 ] } },
{ "type": "Feature", "properties": { "id": "way/386454521" }, "geometry": { "type": "Point", "coordinates": [ 21.093437956019383, 52.249642100799512 ] } },
{ "type": "Feature", "properties": { "id": "way/390611425" }, "geometry": { "type": "Point", "coordinates": [ 21.060021054223345, 52.266825280395828 ] } },
{ "type": "Feature", "properties": { "id": "way/409153152" }, "geometry": { "type": "Point", "coordinates": [ 21.168165596554207, 52.206482974660688 ] } },
{ "type": "Feature", "properties": { "id": "way/415957574" }, "geometry": { "type": "Point", "coordinates": [ 21.164026337229316, 52.203655695702402 ] } },
{ "type": "Feature", "properties": { "id": "way/427170598" }, "geometry": { "type": "Point", "coordinates": [ 21.084153612852685, 52.286025490073541 ] } },
{ "type": "Feature", "properties": { "id": "way/427468324" }, "geometry": { "type": "Point", "coordinates": [ 21.155345829249345, 52.25876463280094 ] } },
{ "type": "Feature", "properties": { "id": "way/430763567" }, "geometry": { "type": "Point", "coordinates": [ 21.05990712703839, 52.314636387543224 ] } },
{ "type": "Feature", "properties": { "id": "way/438217029" }, "geometry": { "type": "Point", "coordinates": [ 21.049322628203267, 52.197374076351053 ] } },
{ "type": "Feature", "properties": { "id": "way/439961592" }, "geometry": { "type": "Point", "coordinates": [ 21.197331738515896, 52.247489192048974 ] } },
{ "type": "Feature", "properties": { "id": "way/440641836" }, "geometry": { "type": "Point", "coordinates": [ 21.064794323420386, 52.324224113481996 ] } },
{ "type": "Feature", "properties": { "id": "way/496654749" }, "geometry": { "type": "Point", "coordinates": [ 21.109039978884848, 52.166150352464363 ] } },
{ "type": "Feature", "properties": { "id": "way/513398843" }, "geometry": { "type": "Point", "coordinates": [ 20.966866080127698, 52.317409642692759 ] } },
{ "type": "Feature", "properties": { "id": "way/517885866" }, "geometry": { "type": "Point", "coordinates": [ 21.097203347101264, 52.124462127541612 ] } },
{ "type": "Feature", "properties": { "id": "way/522967711" }, "geometry": { "type": "Point", "coordinates": [ 21.006828463708871, 52.320272407550227 ] } },
{ "type": "Feature", "properties": { "id": "way/549553102" }, "geometry": { "type": "Point", "coordinates": [ 20.895422216457977, 52.230890486603059 ] } },
{ "type": "Feature", "properties": { "id": "way/549553117" }, "geometry": { "type": "Point", "coordinates": [ 20.895571903212094, 52.229240513478793 ] } },
{ "type": "Feature", "properties": { "id": "way/551023209" }, "geometry": { "type": "Point", "coordinates": [ 21.102068483555918, 52.240672475978329 ] } },
{ "type": "Feature", "properties": { "id": "way/557561900" }, "geometry": { "type": "Point", "coordinates": [ 21.158654234619227, 52.256190099177886 ] } },
{ "type": "Feature", "properties": { "id": "way/557937219" }, "geometry": { "type": "Point", "coordinates": [ 21.061973452339846, 52.315897981009563 ] } },
{ "type": "Feature", "properties": { "id": "way/564633670" }, "geometry": { "type": "Point", "coordinates": [ 21.137600081981873, 52.222948171749117 ] } },
{ "type": "Feature", "properties": { "id": "way/569734268" }, "geometry": { "type": "Point", "coordinates": [ 21.079629266659158, 52.17395247258748 ] } },
{ "type": "Feature", "properties": { "id": "way/572919520" }, "geometry": { "type": "Point", "coordinates": [ 21.086423616388689, 52.244006141080611 ] } },
{ "type": "Feature", "properties": { "id": "way/598742227" }, "geometry": { "type": "Point", "coordinates": [ 21.029109621734786, 52.36295493939646 ] } },
{ "type": "Feature", "properties": { "id": "way/630698676" }, "geometry": { "type": "Point", "coordinates": [ 21.029690192825498, 52.299716342969788 ] } },
{ "type": "Feature", "properties": { "id": "way/633194244" }, "geometry": { "type": "Point", "coordinates": [ 21.075365699868215, 52.134773566795644 ] } },
{ "type": "Feature", "properties": { "id": "way/656708002" }, "geometry": { "type": "Point", "coordinates": [ 21.212939944783905, 52.158006552538396 ] } },
{ "type": "Feature", "properties": { "id": "way/686310038" }, "geometry": { "type": "Point", "coordinates": [ 21.107671198223596, 52.16437225497063 ] } },
{ "type": "Feature", "properties": { "id": "way/693914960" }, "geometry": { "type": "Point", "coordinates": [ 21.091755176959111, 52.147125988909877 ] } },
{ "type": "Feature", "properties": { "id": "way/706326208" }, "geometry": { "type": "Point", "coordinates": [ 21.149354137103181, 52.20150520120086 ] } },
{ "type": "Feature", "properties": { "id": "way/740020214" }, "geometry": { "type": "Point", "coordinates": [ 21.06799930776678, 52.16719677321899 ] } },
{ "type": "Feature", "properties": { "id": "way/743104443" }, "geometry": { "type": "Point", "coordinates": [ 21.152131675162913, 52.222582918250936 ] } },
{ "type": "Feature", "properties": { "id": "way/744161204" }, "geometry": { "type": "Point", "coordinates": [ 20.938555542893997, 52.173317067097386 ] } },
{ "type": "Feature", "properties": { "id": "way/744420787" }, "geometry": { "type": "Point", "coordinates": [ 21.108355542079739, 52.164925484192189 ] } },
{ "type": "Feature", "properties": { "id": "way/750681071" }, "geometry": { "type": "Point", "coordinates": [ 20.945204781948895, 52.350321799409727 ] } },
{ "type": "Feature", "properties": { "id": "way/753586996" }, "geometry": { "type": "Point", "coordinates": [ 21.027804549394723, 52.240717906752451 ] } },
{ "type": "Feature", "properties": { "id": "way/760916609" }, "geometry": { "type": "Point", "coordinates": [ 21.091797098973192, 52.234671422332518 ] } },
{ "type": "Feature", "properties": { "id": "way/770011598" }, "geometry": { "type": "Point", "coordinates": [ 21.16326889431566, 52.171490515174824 ] } },
{ "type": "Feature", "properties": { "id": "way/814241797" }, "geometry": { "type": "Point", "coordinates": [ 20.991835494544819, 52.302697711958345 ] } },
{ "type": "Feature", "properties": { "id": "way/842782846" }, "geometry": { "type": "Point", "coordinates": [ 20.916212140423546, 52.284058290716501 ] } },
{ "type": "Feature", "properties": { "id": "way/848325285" }, "geometry": { "type": "Point", "coordinates": [ 21.048959089833286, 52.211816771777798 ] } },
{ "type": "Feature", "properties": { "id": "way/881750379" }, "geometry": { "type": "Point", "coordinates": [ 21.225385382745692, 52.254738583364194 ] } },
{ "type": "Feature", "properties": { "id": "way/886431012" }, "geometry": { "type": "Point", "coordinates": [ 21.036085852044543, 52.357159764776476 ] } },
{ "type": "Feature", "properties": { "id": "way/897571401" }, "geometry": { "type": "Point", "coordinates": [ 21.058741347463059, 52.139598462904416 ] } },
{ "type": "Feature", "properties": { "id": "way/901976935" }, "geometry": { "type": "Point", "coordinates": [ 21.040050177976667, 52.168984163993237 ] } },
{ "type": "Feature", "properties": { "id": "way/917606674" }, "geometry": { "type": "Point", "coordinates": [ 21.001880182511581, 52.22768093184267 ] } },
{ "type": "Feature", "properties": { "id": "way/935615197" }, "geometry": { "type": "Point", "coordinates": [ 21.025254943674181, 52.172120234445096 ] } },
{ "type": "Feature", "properties": { "id": "way/939315218" }, "geometry": { "type": "Point", "coordinates": [ 21.060093794480231, 52.313791260936874 ] } },
{ "type": "Feature", "properties": { "id": "way/946115558" }, "geometry": { "type": "Point", "coordinates": [ 20.953503797855507, 52.344734997791846 ] } },
{ "type": "Feature", "properties": { "id": "way/946118079" }, "geometry": { "type": "Point", "coordinates": [ 20.939019963678739, 52.339340524599159 ] } },
{ "type": "Feature", "properties": { "id": "way/946486668" }, "geometry": { "type": "Point", "coordinates": [ 20.98658537385408, 52.303983140200842 ] } },
{ "type": "Feature", "properties": { "id": "way/949112521" }, "geometry": { "type": "Point", "coordinates": [ 21.017636951176581, 52.109055740617151 ] } },
{ "type": "Feature", "properties": { "id": "way/958971484" }, "geometry": { "type": "Point", "coordinates": [ 21.236003272157237, 52.22390650475193 ] } },
{ "type": "Feature", "properties": { "id": "way/960891807" }, "geometry": { "type": "Point", "coordinates": [ 21.15754712512885, 52.258459211511308 ] } },
{ "type": "Feature", "properties": { "id": "way/961265542" }, "geometry": { "type": "Point", "coordinates": [ 21.143766578306298, 52.237737922243866 ] } },
{ "type": "Feature", "properties": { "id": "way/961544800" }, "geometry": { "type": "Point", "coordinates": [ 21.044428513248533, 52.360911817544313 ] } },
{ "type": "Feature", "properties": { "id": "way/962914940" }, "geometry": { "type": "Point", "coordinates": [ 21.205246477377738, 52.166078417997824 ] } },
{ "type": "Feature", "properties": { "id": "way/962975343" }, "geometry": { "type": "Point", "coordinates": [ 21.183154741227234, 52.15432069708055 ] } },
{ "type": "Feature", "properties": { "id": "way/963021500" }, "geometry": { "type": "Point", "coordinates": [ 21.191826421238282, 52.182615666558419 ] } },
{ "type": "Feature", "properties": { "id": "way/963246260" }, "geometry": { "type": "Point", "coordinates": [ 21.192164910744765, 52.170964488098761 ] } },
{ "type": "Feature", "properties": { "id": "way/963418736" }, "geometry": { "type": "Point", "coordinates": [ 21.172809634046036, 52.206689605584856 ] } },
{ "type": "Feature", "properties": { "id": "way/964863289" }, "geometry": { "type": "Point", "coordinates": [ 21.09574460715957, 52.224929821295035 ] } },
{ "type": "Feature", "properties": { "id": "way/965715866" }, "geometry": { "type": "Point", "coordinates": [ 21.049112502497302, 52.197173594058093 ] } },
{ "type": "Feature", "properties": { "id": "way/970063774" }, "geometry": { "type": "Point", "coordinates": [ 20.991503586574662, 52.303540030116139 ] } },
{ "type": "Feature", "properties": { "id": "way/977390358" }, "geometry": { "type": "Point", "coordinates": [ 20.950540253367738, 52.346800746021579 ] } },
{ "type": "Feature", "properties": { "id": "way/977506945" }, "geometry": { "type": "Point", "coordinates": [ 20.939618204988413, 52.323611911842384 ] } },
{ "type": "Feature", "properties": { "id": "way/991185170" }, "geometry": { "type": "Point", "coordinates": [ 21.030244220010236, 52.31710948359305 ] } },
{ "type": "Feature", "properties": { "id": "way/1023600982" }, "geometry": { "type": "Point", "coordinates": [ 20.930727441521238, 52.242549167076071 ] } },
{ "type": "Feature", "properties": { "id": "way/1043513378" }, "geometry": { "type": "Point", "coordinates": [ 20.880675483601323, 52.314080143667937 ] } },
{ "type": "Feature", "properties": { "id": "way/1057102986" }, "geometry": { "type": "Point", "coordinates": [ 20.878552974213349, 52.196189589786044 ] } },
{ "type": "Feature", "properties": { "id": "way/1064633350" }, "geometry": { "type": "Point", "coordinates": [ 21.001926327072404, 52.227650337721222 ] } },
{ "type": "Feature", "properties": { "id": "way/1068902132" }, "geometry": { "type": "Point", "coordinates": [ 21.064965491147412, 52.252506691022894 ] } },
{ "type": "Feature", "properties": { "id": "way/1086800441" }, "geometry": { "type": "Point", "coordinates": [ 21.019927394202359, 52.212679918677225 ] } },
{ "type": "Feature", "properties": { "id": "way/1106416418" }, "geometry": { "type": "Point", "coordinates": [ 21.141918816723333, 52.226640969389891 ] } },
{ "type": "Feature", "properties": { "id": "way/1110889752" }, "geometry": { "type": "Point", "coordinates": [ 21.228809212789301, 52.223042972630232 ] } },
{ "type": "Feature", "properties": { "id": "way/1147073616" }, "geometry": { "type": "Point", "coordinates": [ 20.925778111653571, 52.224244973535356 ] } },
{ "type": "Feature", "properties": { "id": "way/1147358531" }, "geometry": { "type": "Point", "coordinates": [ 20.927792718435267, 52.223846551038967 ] } },
{ "type": "Feature", "properties": { "id": "way/1159019143" }, "geometry": { "type": "Point", "coordinates": [ 21.105879377593112, 52.231783786750917 ] } },
{ "type": "Feature", "properties": { "id": "way/1159031672" }, "geometry": { "type": "Point", "coordinates": [ 21.105245628581013, 52.231643409518313 ] } },
{ "type": "Feature", "properties": { "id": "way/1159031679" }, "geometry": { "type": "Point", "coordinates": [ 21.104684382886997, 52.231183127179861 ] } },
{ "type": "Feature", "properties": { "id": "way/1240750728" }, "geometry": { "type": "Point", "coordinates": [ 21.060699793442758, 52.31127802894089 ] } },
{ "type": "Feature", "properties": { "id": "way/1262909824" }, "geometry": { "type": "Point", "coordinates": [ 21.081784166350712, 52.293414737758162 ] } },
{ "type": "Feature", "properties": { "id": "way/1276502444" }, "geometry": { "type": "Point", "coordinates": [ 20.938078664090881, 52.336356565054658 ] } },
{ "type": "Feature", "properties": { "id": "way/1307063565" }, "geometry": { "type": "Point", "coordinates": [ 20.987333792287991, 52.112221496319563 ] } },
{ "type": "Feature", "properties": { "id": "way/1315082125" }, "geometry": { "type": "Point", "coordinates": [ 20.952625266242702, 52.192341996961204 ] } },
{ "type": "Feature", "properties": { "id": "way/1339220960" }, "geometry": { "type": "Point", "coordinates": [ 21.110672043496059, 52.212601225190582 ] } },
{ "type": "Feature", "properties": { "id": "way/1346940033" }, "geometry": { "type": "Point", "coordinates": [ 21.017388415112737, 52.121873391156022 ] } },
{ "type": "Feature", "properties": { "id": "way/1352734541" }, "geometry": { "type": "Point", "coordinates": [ 21.032493561443989, 52.327864318105981 ] } },
{ "type": "Feature", "properties": { "id": "way/1358700393" }, "geometry": { "type": "Point", "coordinates": [ 20.931402982191081, 52.295114019158035 ] } },
{ "type": "Feature", "properties": { "id": "way/1359842474" }, "geometry": { "type": "Point", "coordinates": [ 20.992071700158089, 52.327546949019613 ] } },
{ "type": "Feature", "properties": { "id": "way/1361380787" }, "geometry": { "type": "Point", "coordinates": [ 20.879270415227499, 52.216031916739546 ] } },
{ "type": "Feature", "properties": { "id": "way/1372612273" }, "geometry": { "type": "Point", "coordinates": [ 21.046667282194623, 52.203023577311619 ] } },
{ "type": "Feature", "properties": { "id": "way/1374816284" }, "geometry": { "type": "Point", "coordinates": [ 21.167324938430511, 52.20805007632562 ] } },
{ "type": "Feature", "properties": { "id": "node/248676651" }, "geometry": { "type": "Point", "coordinates": [ 21.1188913, 52.2354104 ] } },
{ "type": "Feature", "properties": { "id": "node/259568968" }, "geometry": { "type": "Point", "coordinates": [ 21.0412809, 52.1534708 ] } },
{ "type": "Feature", "properties": { "id": "node/267789321" }, "geometry": { "type": "Point", "coordinates": [ 21.0916229, 52.2220922 ] } },
{ "type": "Feature", "properties": { "id": "node/279035293" }, "geometry": { "type": "Point", "coordinates": [ 20.9854939, 52.2466534 ] } },
{ "type": "Feature", "properties": { "id": "node/282141267" }, "geometry": { "type": "Point", "coordinates": [ 21.0960624, 52.2448251 ] } },
{ "type": "Feature", "properties": { "id": "node/286604414" }, "geometry": { "type": "Point", "coordinates": [ 21.0567708, 52.2473216 ] } },
{ "type": "Feature", "properties": { "id": "node/302722319" }, "geometry": { "type": "Point", "coordinates": [ 20.9974293, 52.2271892 ] } },
{ "type": "Feature", "properties": { "id": "node/304352833" }, "geometry": { "type": "Point", "coordinates": [ 21.199971, 52.1738517 ] } },
{ "type": "Feature", "properties": { "id": "node/309749930" }, "geometry": { "type": "Point", "coordinates": [ 21.0423029, 52.2500097 ] } },
{ "type": "Feature", "properties": { "id": "node/310316484" }, "geometry": { "type": "Point", "coordinates": [ 20.9515606, 52.2133727 ] } },
{ "type": "Feature", "properties": { "id": "node/339072983" }, "geometry": { "type": "Point", "coordinates": [ 21.0214155, 52.2082233 ] } },
{ "type": "Feature", "properties": { "id": "node/356967322" }, "geometry": { "type": "Point", "coordinates": [ 21.052578, 52.156238 ] } },
{ "type": "Feature", "properties": { "id": "node/410341086" }, "geometry": { "type": "Point", "coordinates": [ 20.9378533, 52.2389317 ] } },
{ "type": "Feature", "properties": { "id": "node/410706944" }, "geometry": { "type": "Point", "coordinates": [ 21.0567524, 52.2306723 ] } },
{ "type": "Feature", "properties": { "id": "node/411513480" }, "geometry": { "type": "Point", "coordinates": [ 20.9346101, 52.2220578 ] } },
{ "type": "Feature", "properties": { "id": "node/416575480" }, "geometry": { "type": "Point", "coordinates": [ 21.0790035, 52.2458489 ] } },
{ "type": "Feature", "properties": { "id": "node/461166142" }, "geometry": { "type": "Point", "coordinates": [ 21.0633017, 52.2392354 ] } },
{ "type": "Feature", "properties": { "id": "node/461166153" }, "geometry": { "type": "Point", "coordinates": [ 21.0633777, 52.2325974 ] } },
{ "type": "Feature", "properties": { "id": "node/472270594" }, "geometry": { "type": "Point", "coordinates": [ 20.9526451, 52.3176151 ] } },
{ "type": "Feature", "properties": { "id": "node/478600834" }, "geometry": { "type": "Point", "coordinates": [ 20.9305127, 52.2639678 ] } },
{ "type": "Feature", "properties": { "id": "node/519551930" }, "geometry": { "type": "Point", "coordinates": [ 21.0840168, 52.2485186 ] } },
{ "type": "Feature", "properties": { "id": "node/520410570" }, "geometry": { "type": "Point", "coordinates": [ 20.9824063, 52.270196 ] } },
{ "type": "Feature", "properties": { "id": "node/561287132" }, "geometry": { "type": "Point", "coordinates": [ 20.9811291, 52.2158147 ] } },
{ "type": "Feature", "properties": { "id": "node/602512075" }, "geometry": { "type": "Point", "coordinates": [ 20.9131087, 52.2528951 ] } },
{ "type": "Feature", "properties": { "id": "node/613500895" }, "geometry": { "type": "Point", "coordinates": [ 20.9927681, 52.2419252 ] } },
{ "type": "Feature", "properties": { "id": "node/661539986" }, "geometry": { "type": "Point", "coordinates": [ 20.9711124, 52.1718218 ] } },
{ "type": "Feature", "properties": { "id": "node/676244907" }, "geometry": { "type": "Point", "coordinates": [ 20.9816309, 52.201852 ] } },
{ "type": "Feature", "properties": { "id": "node/678966084" }, "geometry": { "type": "Point", "coordinates": [ 21.163209, 52.2195556 ] } },
{ "type": "Feature", "properties": { "id": "node/715791145" }, "geometry": { "type": "Point", "coordinates": [ 21.0049206, 52.1799352 ] } },
{ "type": "Feature", "properties": { "id": "node/735241550" }, "geometry": { "type": "Point", "coordinates": [ 20.920672, 52.2561196 ] } },
{ "type": "Feature", "properties": { "id": "node/767817356" }, "geometry": { "type": "Point", "coordinates": [ 20.9507864, 52.3216395 ] } },
{ "type": "Feature", "properties": { "id": "node/775892995" }, "geometry": { "type": "Point", "coordinates": [ 21.0932807, 52.2325141 ] } },
{ "type": "Feature", "properties": { "id": "node/778478001" }, "geometry": { "type": "Point", "coordinates": [ 20.8819242, 52.1972837 ] } },
{ "type": "Feature", "properties": { "id": "node/821622126" }, "geometry": { "type": "Point", "coordinates": [ 20.8624682, 52.1952637 ] } },
{ "type": "Feature", "properties": { "id": "node/821622139" }, "geometry": { "type": "Point", "coordinates": [ 20.8630691, 52.1955465 ] } },
{ "type": "Feature", "properties": { "id": "node/845791933" }, "geometry": { "type": "Point", "coordinates": [ 20.9357681, 52.2847747 ] } },
{ "type": "Feature", "properties": { "id": "node/990042524" }, "geometry": { "type": "Point", "coordinates": [ 20.9274517, 52.2757172 ] } },
{ "type": "Feature", "properties": { "id": "node/990042526" }, "geometry": { "type": "Point", "coordinates": [ 20.9226838, 52.2753685 ] } },
{ "type": "Feature", "properties": { "id": "node/991252468" }, "geometry": { "type": "Point", "coordinates": [ 21.0275773, 52.2376586 ] } },
{ "type": "Feature", "properties": { "id": "node/1038483722" }, "geometry": { "type": "Point", "coordinates": [ 20.9374645, 52.2808195 ] } },
{ "type": "Feature", "properties": { "id": "node/1060412108" }, "geometry": { "type": "Point", "coordinates": [ 20.9857109, 52.2581221 ] } },
{ "type": "Feature", "properties": { "id": "node/1110369826" }, "geometry": { "type": "Point", "coordinates": [ 21.0334003, 52.156107 ] } },
{ "type": "Feature", "properties": { "id": "node/1181665787" }, "geometry": { "type": "Point", "coordinates": [ 21.0854225, 52.2465737 ] } },
{ "type": "Feature", "properties": { "id": "node/1282468919" }, "geometry": { "type": "Point", "coordinates": [ 20.9209835, 52.2088044 ] } },
{ "type": "Feature", "properties": { "id": "node/1282482320" }, "geometry": { "type": "Point", "coordinates": [ 20.9801523, 52.2219696 ] } },
{ "type": "Feature", "properties": { "id": "node/1300250590" }, "geometry": { "type": "Point", "coordinates": [ 21.0134968, 52.1784849 ] } },
{ "type": "Feature", "properties": { "id": "node/1369854458" }, "geometry": { "type": "Point", "coordinates": [ 21.0305171, 52.2897316 ] } },
{ "type": "Feature", "properties": { "id": "node/1389664210" }, "geometry": { "type": "Point", "coordinates": [ 21.030177, 52.3172856 ] } },
{ "type": "Feature", "properties": { "id": "node/1396073179" }, "geometry": { "type": "Point", "coordinates": [ 21.0379008, 52.2552193 ] } },
{ "type": "Feature", "properties": { "id": "node/1419590278" }, "geometry": { "type": "Point", "coordinates": [ 20.9779557, 52.1985754 ] } },
{ "type": "Feature", "properties": { "id": "node/1424010612" }, "geometry": { "type": "Point", "coordinates": [ 20.9175424, 52.1982813 ] } },
{ "type": "Feature", "properties": { "id": "node/1490193540" }, "geometry": { "type": "Point", "coordinates": [ 21.0182217, 52.272152 ] } },
{ "type": "Feature", "properties": { "id": "node/1493512619" }, "geometry": { "type": "Point", "coordinates": [ 20.9761217, 52.2093931 ] } },
{ "type": "Feature", "properties": { "id": "node/1493537025" }, "geometry": { "type": "Point", "coordinates": [ 20.964615, 52.2035957 ] } },
{ "type": "Feature", "properties": { "id": "node/1494119067" }, "geometry": { "type": "Point", "coordinates": [ 21.0197615, 52.1820762 ] } },
{ "type": "Feature", "properties": { "id": "node/1503149824" }, "geometry": { "type": "Point", "coordinates": [ 21.0447054, 52.1520436 ] } },
{ "type": "Feature", "properties": { "id": "node/1528979348" }, "geometry": { "type": "Point", "coordinates": [ 21.0366695, 52.3608488 ] } },
{ "type": "Feature", "properties": { "id": "node/1550534775" }, "geometry": { "type": "Point", "coordinates": [ 20.999924, 52.2373316 ] } },
{ "type": "Feature", "properties": { "id": "node/1580686741" }, "geometry": { "type": "Point", "coordinates": [ 20.9664816, 52.2004167 ] } },
{ "type": "Feature", "properties": { "id": "node/1652894907" }, "geometry": { "type": "Point", "coordinates": [ 21.0608999, 52.2310558 ] } },
{ "type": "Feature", "properties": { "id": "node/1666870422" }, "geometry": { "type": "Point", "coordinates": [ 20.9636131, 52.2326022 ] } },
{ "type": "Feature", "properties": { "id": "node/1673573519" }, "geometry": { "type": "Point", "coordinates": [ 21.0702124, 52.2483355 ] } },
{ "type": "Feature", "properties": { "id": "node/1703486744" }, "geometry": { "type": "Point", "coordinates": [ 21.0274063, 52.1412169 ] } },
{ "type": "Feature", "properties": { "id": "node/1750765627" }, "geometry": { "type": "Point", "coordinates": [ 21.0339463, 52.2014035 ] } },
{ "type": "Feature", "properties": { "id": "node/1760900342" }, "geometry": { "type": "Point", "coordinates": [ 21.2344643, 52.2228343 ] } },
{ "type": "Feature", "properties": { "id": "node/1773687273" }, "geometry": { "type": "Point", "coordinates": [ 20.9597469, 52.2347585 ] } },
{ "type": "Feature", "properties": { "id": "node/1777175863" }, "geometry": { "type": "Point", "coordinates": [ 21.05023, 52.2536403 ] } },
{ "type": "Feature", "properties": { "id": "node/1783313953" }, "geometry": { "type": "Point", "coordinates": [ 21.0206762, 52.2922129 ] } },
{ "type": "Feature", "properties": { "id": "node/1796182627" }, "geometry": { "type": "Point", "coordinates": [ 21.1540075, 52.1733856 ] } },
{ "type": "Feature", "properties": { "id": "node/1806708737" }, "geometry": { "type": "Point", "coordinates": [ 21.0032067, 52.2512634 ] } },
{ "type": "Feature", "properties": { "id": "node/1857068896" }, "geometry": { "type": "Point", "coordinates": [ 21.0901305, 52.2265675 ] } },
{ "type": "Feature", "properties": { "id": "node/1880149758" }, "geometry": { "type": "Point", "coordinates": [ 21.0584489, 52.3048565 ] } },
{ "type": "Feature", "properties": { "id": "node/1917978578" }, "geometry": { "type": "Point", "coordinates": [ 21.0793137, 52.3055881 ] } },
{ "type": "Feature", "properties": { "id": "node/1991569254" }, "geometry": { "type": "Point", "coordinates": [ 21.0389351, 52.1722249 ] } },
{ "type": "Feature", "properties": { "id": "node/1996837158" }, "geometry": { "type": "Point", "coordinates": [ 21.0439931, 52.3000387 ] } },
{ "type": "Feature", "properties": { "id": "node/2025585144" }, "geometry": { "type": "Point", "coordinates": [ 21.1896198, 52.247098 ] } },
{ "type": "Feature", "properties": { "id": "node/2025677246" }, "geometry": { "type": "Point", "coordinates": [ 20.8994813, 52.2238357 ] } },
{ "type": "Feature", "properties": { "id": "node/2127505528" }, "geometry": { "type": "Point", "coordinates": [ 20.9883535, 52.2530978 ] } },
{ "type": "Feature", "properties": { "id": "node/2150422287" }, "geometry": { "type": "Point", "coordinates": [ 21.0262756, 52.1810327 ] } },
{ "type": "Feature", "properties": { "id": "node/2178525815" }, "geometry": { "type": "Point", "coordinates": [ 21.0568832, 52.3226584 ] } },
{ "type": "Feature", "properties": { "id": "node/2242866148" }, "geometry": { "type": "Point", "coordinates": [ 20.9485412, 52.3324133 ] } },
{ "type": "Feature", "properties": { "id": "node/2262718672" }, "geometry": { "type": "Point", "coordinates": [ 20.9876509, 52.2335231 ] } },
{ "type": "Feature", "properties": { "id": "node/2297560355" }, "geometry": { "type": "Point", "coordinates": [ 20.9635441, 52.2673496 ] } },
{ "type": "Feature", "properties": { "id": "node/2297560475" }, "geometry": { "type": "Point", "coordinates": [ 20.9614114, 52.2614037 ] } },
{ "type": "Feature", "properties": { "id": "node/2374082429" }, "geometry": { "type": "Point", "coordinates": [ 20.9408739, 52.2961638 ] } },
{ "type": "Feature", "properties": { "id": "node/2390051908" }, "geometry": { "type": "Point", "coordinates": [ 21.0110403, 52.2320542 ] } },
{ "type": "Feature", "properties": { "id": "node/2390051917" }, "geometry": { "type": "Point", "coordinates": [ 21.0111431, 52.2316168 ] } },
{ "type": "Feature", "properties": { "id": "node/2535770623" }, "geometry": { "type": "Point", "coordinates": [ 21.0378403, 52.1583985 ] } },
{ "type": "Feature", "properties": { "id": "node/2546502161" }, "geometry": { "type": "Point", "coordinates": [ 21.0023394, 52.229822 ] } },
{ "type": "Feature", "properties": { "id": "node/2548265062" }, "geometry": { "type": "Point", "coordinates": [ 20.9950724, 52.2358716 ] } },
{ "type": "Feature", "properties": { "id": "node/2591323934" }, "geometry": { "type": "Point", "coordinates": [ 20.994864, 52.1697451 ] } },
{ "type": "Feature", "properties": { "id": "node/2600417201" }, "geometry": { "type": "Point", "coordinates": [ 21.1139829, 52.2373184 ] } },
{ "type": "Feature", "properties": { "id": "node/2624013602" }, "geometry": { "type": "Point", "coordinates": [ 21.0724503, 52.1572584 ] } },
{ "type": "Feature", "properties": { "id": "node/2633012362" }, "geometry": { "type": "Point", "coordinates": [ 20.9374559, 52.2012406 ] } },
{ "type": "Feature", "properties": { "id": "node/2683126939" }, "geometry": { "type": "Point", "coordinates": [ 20.9364103, 52.2912076 ] } },
{ "type": "Feature", "properties": { "id": "node/2740423630" }, "geometry": { "type": "Point", "coordinates": [ 20.910559, 52.2282841 ] } },
{ "type": "Feature", "properties": { "id": "node/2776062559" }, "geometry": { "type": "Point", "coordinates": [ 21.0791878, 52.3036264 ] } },
{ "type": "Feature", "properties": { "id": "node/2785086514" }, "geometry": { "type": "Point", "coordinates": [ 20.9574495, 52.2677256 ] } },
{ "type": "Feature", "properties": { "id": "node/2912430414" }, "geometry": { "type": "Point", "coordinates": [ 20.9762619, 52.234969 ] } },
{ "type": "Feature", "properties": { "id": "node/3010459837" }, "geometry": { "type": "Point", "coordinates": [ 20.9437423, 52.3495209 ] } },
{ "type": "Feature", "properties": { "id": "node/3013983804" }, "geometry": { "type": "Point", "coordinates": [ 21.0945747, 52.2469712 ] } },
{ "type": "Feature", "properties": { "id": "node/3014212568" }, "geometry": { "type": "Point", "coordinates": [ 21.170717, 52.2519958 ] } },
{ "type": "Feature", "properties": { "id": "node/3014212569" }, "geometry": { "type": "Point", "coordinates": [ 21.1614998, 52.2425177 ] } },
{ "type": "Feature", "properties": { "id": "node/3024349719" }, "geometry": { "type": "Point", "coordinates": [ 21.0572713, 52.3013443 ] } },
{ "type": "Feature", "properties": { "id": "node/3025099861" }, "geometry": { "type": "Point", "coordinates": [ 21.0453287, 52.2925442 ] } },
{ "type": "Feature", "properties": { "id": "node/3031428106" }, "geometry": { "type": "Point", "coordinates": [ 20.9965483, 52.2448957 ] } },
{ "type": "Feature", "properties": { "id": "node/3118068429" }, "geometry": { "type": "Point", "coordinates": [ 20.9754946, 52.1986041 ] } },
{ "type": "Feature", "properties": { "id": "node/3121934165" }, "geometry": { "type": "Point", "coordinates": [ 21.0685654, 52.2738384 ] } },
{ "type": "Feature", "properties": { "id": "node/3142885773" }, "geometry": { "type": "Point", "coordinates": [ 21.0556747, 52.1809424 ] } },
{ "type": "Feature", "properties": { "id": "node/3174705025" }, "geometry": { "type": "Point", "coordinates": [ 20.9936287, 52.2546409 ] } },
{ "type": "Feature", "properties": { "id": "node/3216256186" }, "geometry": { "type": "Point", "coordinates": [ 21.0708868, 52.1639921 ] } },
{ "type": "Feature", "properties": { "id": "node/3218845255" }, "geometry": { "type": "Point", "coordinates": [ 20.9939725, 52.2305134 ] } },
{ "type": "Feature", "properties": { "id": "node/3219209980" }, "geometry": { "type": "Point", "coordinates": [ 21.0943923, 52.2217662 ] } },
{ "type": "Feature", "properties": { "id": "node/3366686595" }, "geometry": { "type": "Point", "coordinates": [ 21.0034319, 52.173927 ] } },
{ "type": "Feature", "properties": { "id": "node/3425757777" }, "geometry": { "type": "Point", "coordinates": [ 20.9482169, 52.2392272 ] } },
{ "type": "Feature", "properties": { "id": "node/3513036059" }, "geometry": { "type": "Point", "coordinates": [ 21.0734345, 52.2421725 ] } },
{ "type": "Feature", "properties": { "id": "node/3518954680" }, "geometry": { "type": "Point", "coordinates": [ 20.9017526, 52.2297303 ] } },
{ "type": "Feature", "properties": { "id": "node/3526732166" }, "geometry": { "type": "Point", "coordinates": [ 20.9665057, 52.2445654 ] } },
{ "type": "Feature", "properties": { "id": "node/3561370585" }, "geometry": { "type": "Point", "coordinates": [ 20.9819591, 52.2374061 ] } },
{ "type": "Feature", "properties": { "id": "node/3572866850" }, "geometry": { "type": "Point", "coordinates": [ 20.9959019, 52.2042426 ] } },
{ "type": "Feature", "properties": { "id": "node/3587725362" }, "geometry": { "type": "Point", "coordinates": [ 21.0702949, 52.1624063 ] } },
{ "type": "Feature", "properties": { "id": "node/3595224852" }, "geometry": { "type": "Point", "coordinates": [ 21.0743006, 52.2863873 ] } },
{ "type": "Feature", "properties": { "id": "node/3616876525" }, "geometry": { "type": "Point", "coordinates": [ 21.0224566, 52.2074699 ] } },
{ "type": "Feature", "properties": { "id": "node/3644113281" }, "geometry": { "type": "Point", "coordinates": [ 20.9088936, 52.1989647 ] } },
{ "type": "Feature", "properties": { "id": "node/3684294728" }, "geometry": { "type": "Point", "coordinates": [ 21.0046692, 52.2346997 ] } },
{ "type": "Feature", "properties": { "id": "node/3690576692" }, "geometry": { "type": "Point", "coordinates": [ 20.9722365, 52.2585686 ] } },
{ "type": "Feature", "properties": { "id": "node/3703521520" }, "geometry": { "type": "Point", "coordinates": [ 21.0577647, 52.1473634 ] } },
{ "type": "Feature", "properties": { "id": "node/3714259206" }, "geometry": { "type": "Point", "coordinates": [ 21.0295071, 52.1614921 ] } },
{ "type": "Feature", "properties": { "id": "node/3797133055" }, "geometry": { "type": "Point", "coordinates": [ 20.9469739, 52.2385779 ] } },
{ "type": "Feature", "properties": { "id": "node/3870525886" }, "geometry": { "type": "Point", "coordinates": [ 20.9554464, 52.2129209 ] } },
{ "type": "Feature", "properties": { "id": "node/3886405873" }, "geometry": { "type": "Point", "coordinates": [ 21.167562, 52.2067281 ] } },
{ "type": "Feature", "properties": { "id": "node/3896778929" }, "geometry": { "type": "Point", "coordinates": [ 21.0777207, 52.3057577 ] } },
{ "type": "Feature", "properties": { "id": "node/3980723867" }, "geometry": { "type": "Point", "coordinates": [ 21.0109815, 52.2319245 ] } },
{ "type": "Feature", "properties": { "id": "node/4036101689" }, "geometry": { "type": "Point", "coordinates": [ 21.0360576, 52.2337856 ] } },
{ "type": "Feature", "properties": { "id": "node/4195294354" }, "geometry": { "type": "Point", "coordinates": [ 20.9778052, 52.232128 ] } },
{ "type": "Feature", "properties": { "id": "node/4204734689" }, "geometry": { "type": "Point", "coordinates": [ 21.0220496, 52.2271253 ] } },
{ "type": "Feature", "properties": { "id": "node/4217635871" }, "geometry": { "type": "Point", "coordinates": [ 21.0596301, 52.263913 ] } },
{ "type": "Feature", "properties": { "id": "node/4241984389" }, "geometry": { "type": "Point", "coordinates": [ 21.0609951, 52.1759023 ] } },
{ "type": "Feature", "properties": { "id": "node/4245017589" }, "geometry": { "type": "Point", "coordinates": [ 21.0208549, 52.1563744 ] } },
{ "type": "Feature", "properties": { "id": "node/4275214111" }, "geometry": { "type": "Point", "coordinates": [ 21.0679763, 52.1644773 ] } },
{ "type": "Feature", "properties": { "id": "node/4285807465" }, "geometry": { "type": "Point", "coordinates": [ 21.0348222, 52.1553018 ] } },
{ "type": "Feature", "properties": { "id": "node/4286855910" }, "geometry": { "type": "Point", "coordinates": [ 21.0181917, 52.2368142 ] } },
{ "type": "Feature", "properties": { "id": "node/4318082120" }, "geometry": { "type": "Point", "coordinates": [ 21.0561541, 52.1718195 ] } },
{ "type": "Feature", "properties": { "id": "node/4339524881" }, "geometry": { "type": "Point", "coordinates": [ 20.9350145, 52.2420975 ] } },
{ "type": "Feature", "properties": { "id": "node/4342979258" }, "geometry": { "type": "Point", "coordinates": [ 21.0718324, 52.1720129 ] } },
{ "type": "Feature", "properties": { "id": "node/4362590735" }, "geometry": { "type": "Point", "coordinates": [ 20.940048, 52.3286977 ] } },
{ "type": "Feature", "properties": { "id": "node/4460884030" }, "geometry": { "type": "Point", "coordinates": [ 21.0111931, 52.2222343 ] } },
{ "type": "Feature", "properties": { "id": "node/4483931392" }, "geometry": { "type": "Point", "coordinates": [ 21.0164716, 52.1785732 ] } },
{ "type": "Feature", "properties": { "id": "node/4537749947" }, "geometry": { "type": "Point", "coordinates": [ 21.1001493, 52.238743 ] } },
{ "type": "Feature", "properties": { "id": "node/4560584104" }, "geometry": { "type": "Point", "coordinates": [ 21.0333295, 52.2304994 ] } },
{ "type": "Feature", "properties": { "id": "node/4565028950" }, "geometry": { "type": "Point", "coordinates": [ 20.9462814, 52.2247813 ] } },
{ "type": "Feature", "properties": { "id": "node/4574038921" }, "geometry": { "type": "Point", "coordinates": [ 20.9945227, 52.2419502 ] } },
{ "type": "Feature", "properties": { "id": "node/4678801489" }, "geometry": { "type": "Point", "coordinates": [ 20.9563819, 52.213403 ] } },
{ "type": "Feature", "properties": { "id": "node/4680033295" }, "geometry": { "type": "Point", "coordinates": [ 21.0057288, 52.1710615 ] } },
{ "type": "Feature", "properties": { "id": "node/4707299191" }, "geometry": { "type": "Point", "coordinates": [ 20.9454253, 52.2712076 ] } },
{ "type": "Feature", "properties": { "id": "node/4732419424" }, "geometry": { "type": "Point", "coordinates": [ 21.0037798, 52.1812117 ] } },
{ "type": "Feature", "properties": { "id": "node/4796222061" }, "geometry": { "type": "Point", "coordinates": [ 21.2128896, 52.1589103 ] } },
{ "type": "Feature", "properties": { "id": "node/4796263137" }, "geometry": { "type": "Point", "coordinates": [ 21.2136254, 52.1619632 ] } },
{ "type": "Feature", "properties": { "id": "node/4807206242" }, "geometry": { "type": "Point", "coordinates": [ 21.0681476, 52.2334795 ] } },
{ "type": "Feature", "properties": { "id": "node/4817575899" }, "geometry": { "type": "Point", "coordinates": [ 20.9817106, 52.22149 ] } },
{ "type": "Feature", "properties": { "id": "node/4854298997" }, "geometry": { "type": "Point", "coordinates": [ 21.0604378, 52.1880457 ] } },
{ "type": "Feature", "properties": { "id": "node/4854722321" }, "geometry": { "type": "Point", "coordinates": [ 21.0404592, 52.2659213 ] } },
{ "type": "Feature", "properties": { "id": "node/4890463763" }, "geometry": { "type": "Point", "coordinates": [ 21.1112306, 52.1666692 ] } },
{ "type": "Feature", "properties": { "id": "node/4963137263" }, "geometry": { "type": "Point", "coordinates": [ 20.9754098, 52.2375305 ] } },
{ "type": "Feature", "properties": { "id": "node/4983161949" }, "geometry": { "type": "Point", "coordinates": [ 21.0378074, 52.296685 ] } },
{ "type": "Feature", "properties": { "id": "node/5005251821" }, "geometry": { "type": "Point", "coordinates": [ 20.9444149, 52.2943819 ] } },
{ "type": "Feature", "properties": { "id": "node/5018046322" }, "geometry": { "type": "Point", "coordinates": [ 20.8952973, 52.2199509 ] } },
{ "type": "Feature", "properties": { "id": "node/5038366691" }, "geometry": { "type": "Point", "coordinates": [ 21.0611905, 52.2684999 ] } },
{ "type": "Feature", "properties": { "id": "node/5075141784" }, "geometry": { "type": "Point", "coordinates": [ 20.9223684, 52.2603213 ] } },
{ "type": "Feature", "properties": { "id": "node/5077023233" }, "geometry": { "type": "Point", "coordinates": [ 21.0122273, 52.1810473 ] } },
{ "type": "Feature", "properties": { "id": "node/5104704517" }, "geometry": { "type": "Point", "coordinates": [ 20.9680961, 52.3168326 ] } },
{ "type": "Feature", "properties": { "id": "node/5106051174" }, "geometry": { "type": "Point", "coordinates": [ 20.9660758, 52.3181053 ] } },
{ "type": "Feature", "properties": { "id": "node/5110441529" }, "geometry": { "type": "Point", "coordinates": [ 21.0117895, 52.2321892 ] } },
{ "type": "Feature", "properties": { "id": "node/5233361934" }, "geometry": { "type": "Point", "coordinates": [ 20.9980577, 52.2352956 ] } },
{ "type": "Feature", "properties": { "id": "node/5236208559" }, "geometry": { "type": "Point", "coordinates": [ 21.0571977, 52.2686271 ] } },
{ "type": "Feature", "properties": { "id": "node/5237121372" }, "geometry": { "type": "Point", "coordinates": [ 21.2439287, 52.2504277 ] } },
{ "type": "Feature", "properties": { "id": "node/5261601481" }, "geometry": { "type": "Point", "coordinates": [ 21.2242726, 52.2532928 ] } },
{ "type": "Feature", "properties": { "id": "node/5291126139" }, "geometry": { "type": "Point", "coordinates": [ 20.9166027, 52.2478024 ] } },
{ "type": "Feature", "properties": { "id": "node/5293917242" }, "geometry": { "type": "Point", "coordinates": [ 21.0472413, 52.1872537 ] } },
{ "type": "Feature", "properties": { "id": "node/5341651060" }, "geometry": { "type": "Point", "coordinates": [ 21.0437551, 52.1465539 ] } },
{ "type": "Feature", "properties": { "id": "node/5368652233" }, "geometry": { "type": "Point", "coordinates": [ 21.0914125, 52.2245095 ] } },
{ "type": "Feature", "properties": { "id": "node/5380275103" }, "geometry": { "type": "Point", "coordinates": [ 21.0621269, 52.3158224 ] } },
{ "type": "Feature", "properties": { "id": "node/5388233668" }, "geometry": { "type": "Point", "coordinates": [ 21.1585112, 52.2561303 ] } },
{ "type": "Feature", "properties": { "id": "node/5394061592" }, "geometry": { "type": "Point", "coordinates": [ 20.9895126, 52.1856419 ] } },
{ "type": "Feature", "properties": { "id": "node/5401378733" }, "geometry": { "type": "Point", "coordinates": [ 21.1899183, 52.1816161 ] } },
{ "type": "Feature", "properties": { "id": "node/5420944562" }, "geometry": { "type": "Point", "coordinates": [ 21.0249997, 52.1918102 ] } },
{ "type": "Feature", "properties": { "id": "node/5440379630" }, "geometry": { "type": "Point", "coordinates": [ 21.1095892, 52.2454002 ] } },
{ "type": "Feature", "properties": { "id": "node/5440448353" }, "geometry": { "type": "Point", "coordinates": [ 21.0667236, 52.2264951 ] } },
{ "type": "Feature", "properties": { "id": "node/5448579669" }, "geometry": { "type": "Point", "coordinates": [ 21.0079286, 52.210262 ] } },
{ "type": "Feature", "properties": { "id": "node/5455197921" }, "geometry": { "type": "Point", "coordinates": [ 21.028823, 52.2598832 ] } },
{ "type": "Feature", "properties": { "id": "node/5659018400" }, "geometry": { "type": "Point", "coordinates": [ 21.0526783, 52.2525346 ] } },
{ "type": "Feature", "properties": { "id": "node/5689922384" }, "geometry": { "type": "Point", "coordinates": [ 20.8947617, 52.2386704 ] } },
{ "type": "Feature", "properties": { "id": "node/5693296915" }, "geometry": { "type": "Point", "coordinates": [ 20.9673615, 52.2405384 ] } },
{ "type": "Feature", "properties": { "id": "node/5734039560" }, "geometry": { "type": "Point", "coordinates": [ 20.94881, 52.2262692 ] } },
{ "type": "Feature", "properties": { "id": "node/5790039896" }, "geometry": { "type": "Point", "coordinates": [ 21.0707281, 52.2424207 ] } },
{ "type": "Feature", "properties": { "id": "node/5819256853" }, "geometry": { "type": "Point", "coordinates": [ 20.9306444, 52.2734773 ] } },
{ "type": "Feature", "properties": { "id": "node/5824357709" }, "geometry": { "type": "Point", "coordinates": [ 21.0685325, 52.1649615 ] } },
{ "type": "Feature", "properties": { "id": "node/5898730546" }, "geometry": { "type": "Point", "coordinates": [ 21.0208635, 52.2305257 ] } },
{ "type": "Feature", "properties": { "id": "node/5922184787" }, "geometry": { "type": "Point", "coordinates": [ 20.9937203, 52.251115 ] } },
{ "type": "Feature", "properties": { "id": "node/5952401860" }, "geometry": { "type": "Point", "coordinates": [ 21.0275835, 52.2009104 ] } },
{ "type": "Feature", "properties": { "id": "node/6013188201" }, "geometry": { "type": "Point", "coordinates": [ 21.0202899, 52.1788851 ] } },
{ "type": "Feature", "properties": { "id": "node/6052608020" }, "geometry": { "type": "Point", "coordinates": [ 20.9629124, 52.3191061 ] } },
{ "type": "Feature", "properties": { "id": "node/6068394903" }, "geometry": { "type": "Point", "coordinates": [ 21.0260899, 52.1614656 ] } },
{ "type": "Feature", "properties": { "id": "node/6123470775" }, "geometry": { "type": "Point", "coordinates": [ 20.9780878, 52.2134011 ] } },
{ "type": "Feature", "properties": { "id": "node/6167232164" }, "geometry": { "type": "Point", "coordinates": [ 21.00026, 52.2331733 ] } },
{ "type": "Feature", "properties": { "id": "node/6215795485" }, "geometry": { "type": "Point", "coordinates": [ 21.0748148, 52.1672016 ] } },
{ "type": "Feature", "properties": { "id": "node/6343622817" }, "geometry": { "type": "Point", "coordinates": [ 21.0818076, 52.1540936 ] } },
{ "type": "Feature", "properties": { "id": "node/6486479573" }, "geometry": { "type": "Point", "coordinates": [ 21.01724, 52.2313777 ] } },
{ "type": "Feature", "properties": { "id": "node/6545623338" }, "geometry": { "type": "Point", "coordinates": [ 21.0864584, 52.2441689 ] } },
{ "type": "Feature", "properties": { "id": "node/6681678457" }, "geometry": { "type": "Point", "coordinates": [ 21.0656824, 52.141588 ] } },
{ "type": "Feature", "properties": { "id": "node/6693364983" }, "geometry": { "type": "Point", "coordinates": [ 21.0305045, 52.1528815 ] } },
{ "type": "Feature", "properties": { "id": "node/6734310594" }, "geometry": { "type": "Point", "coordinates": [ 21.1125775, 52.2335538 ] } },
{ "type": "Feature", "properties": { "id": "node/6765113487" }, "geometry": { "type": "Point", "coordinates": [ 21.0435047, 52.1776187 ] } },
{ "type": "Feature", "properties": { "id": "node/6900650506" }, "geometry": { "type": "Point", "coordinates": [ 21.0053073, 52.1874977 ] } },
{ "type": "Feature", "properties": { "id": "node/6949548591" }, "geometry": { "type": "Point", "coordinates": [ 21.0218459, 52.2877528 ] } },
{ "type": "Feature", "properties": { "id": "node/7023967563" }, "geometry": { "type": "Point", "coordinates": [ 21.0323868, 52.295626 ] } },
{ "type": "Feature", "properties": { "id": "node/7114064188" }, "geometry": { "type": "Point", "coordinates": [ 21.0751566, 52.2474273 ] } },
{ "type": "Feature", "properties": { "id": "node/7124432442" }, "geometry": { "type": "Point", "coordinates": [ 21.078625, 52.2341735 ] } },
{ "type": "Feature", "properties": { "id": "node/7132648917" }, "geometry": { "type": "Point", "coordinates": [ 20.9837315, 52.2486584 ] } },
{ "type": "Feature", "properties": { "id": "node/7132973199" }, "geometry": { "type": "Point", "coordinates": [ 21.0108831, 52.222124 ] } },
{ "type": "Feature", "properties": { "id": "node/7164817899" }, "geometry": { "type": "Point", "coordinates": [ 21.1679856, 52.2574962 ] } },
{ "type": "Feature", "properties": { "id": "node/7211522677" }, "geometry": { "type": "Point", "coordinates": [ 20.9590226, 52.236707 ] } },
{ "type": "Feature", "properties": { "id": "node/7498068077" }, "geometry": { "type": "Point", "coordinates": [ 21.1678299, 52.2066542 ] } },
{ "type": "Feature", "properties": { "id": "node/7553531487" }, "geometry": { "type": "Point", "coordinates": [ 21.1819888, 52.2455746 ] } },
{ "type": "Feature", "properties": { "id": "node/7819785204" }, "geometry": { "type": "Point", "coordinates": [ 20.9847163, 52.2283792 ] } },
{ "type": "Feature", "properties": { "id": "node/7992132378" }, "geometry": { "type": "Point", "coordinates": [ 20.9802985, 52.2470123 ] } },
{ "type": "Feature", "properties": { "id": "node/8157958195" }, "geometry": { "type": "Point", "coordinates": [ 20.8867781, 52.1953367 ] } },
{ "type": "Feature", "properties": { "id": "node/8292941694" }, "geometry": { "type": "Point", "coordinates": [ 21.0342353, 52.2497079 ] } },
{ "type": "Feature", "properties": { "id": "node/8344207802" }, "geometry": { "type": "Point", "coordinates": [ 20.9983242, 52.2301594 ] } },
{ "type": "Feature", "properties": { "id": "node/8415227470" }, "geometry": { "type": "Point", "coordinates": [ 21.0162255, 52.1478859 ] } },
{ "type": "Feature", "properties": { "id": "node/8422188661" }, "geometry": { "type": "Point", "coordinates": [ 20.9946633, 52.2380424 ] } },
{ "type": "Feature", "properties": { "id": "node/8477005640" }, "geometry": { "type": "Point", "coordinates": [ 20.956457, 52.2250625 ] } },
{ "type": "Feature", "properties": { "id": "node/8518890430" }, "geometry": { "type": "Point", "coordinates": [ 20.987489, 52.233443 ] } },
{ "type": "Feature", "properties": { "id": "node/8543135524" }, "geometry": { "type": "Point", "coordinates": [ 21.1175964, 52.275349 ] } },
{ "type": "Feature", "properties": { "id": "node/8553195046" }, "geometry": { "type": "Point", "coordinates": [ 21.0482004, 52.204064 ] } },
{ "type": "Feature", "properties": { "id": "node/8629166797" }, "geometry": { "type": "Point", "coordinates": [ 21.2439186, 52.2233823 ] } },
{ "type": "Feature", "properties": { "id": "node/8641750937" }, "geometry": { "type": "Point", "coordinates": [ 20.9629619, 52.2011814 ] } },
{ "type": "Feature", "properties": { "id": "node/8663445874" }, "geometry": { "type": "Point", "coordinates": [ 21.0447028, 52.2562115 ] } },
{ "type": "Feature", "properties": { "id": "node/8663445875" }, "geometry": { "type": "Point", "coordinates": [ 21.045167, 52.256434 ] } },
{ "type": "Feature", "properties": { "id": "node/8677782371" }, "geometry": { "type": "Point", "coordinates": [ 21.0321971, 52.1551588 ] } },
{ "type": "Feature", "properties": { "id": "node/8705080743" }, "geometry": { "type": "Point", "coordinates": [ 21.0451545, 52.2692452 ] } },
{ "type": "Feature", "properties": { "id": "node/8738612951" }, "geometry": { "type": "Point", "coordinates": [ 20.9650197, 52.2452408 ] } },
{ "type": "Feature", "properties": { "id": "node/8761129121" }, "geometry": { "type": "Point", "coordinates": [ 20.9744479, 52.3188293 ] } },
{ "type": "Feature", "properties": { "id": "node/8777433607" }, "geometry": { "type": "Point", "coordinates": [ 20.9320583, 52.2885832 ] } },
{ "type": "Feature", "properties": { "id": "node/8838506285" }, "geometry": { "type": "Point", "coordinates": [ 20.9381771, 52.2702311 ] } },
{ "type": "Feature", "properties": { "id": "node/8839930293" }, "geometry": { "type": "Point", "coordinates": [ 20.9383826, 52.274686 ] } },
{ "type": "Feature", "properties": { "id": "node/8888073892" }, "geometry": { "type": "Point", "coordinates": [ 21.1503033, 52.2712297 ] } },
{ "type": "Feature", "properties": { "id": "node/8889826543" }, "geometry": { "type": "Point", "coordinates": [ 21.1487978, 52.2695705 ] } },
{ "type": "Feature", "properties": { "id": "node/8908257347" }, "geometry": { "type": "Point", "coordinates": [ 21.1886178, 52.1855949 ] } },
{ "type": "Feature", "properties": { "id": "node/8908337143" }, "geometry": { "type": "Point", "coordinates": [ 21.1878775, 52.1867368 ] } },
{ "type": "Feature", "properties": { "id": "node/8910138217" }, "geometry": { "type": "Point", "coordinates": [ 21.2010022, 52.1706469 ] } },
{ "type": "Feature", "properties": { "id": "node/8918530603" }, "geometry": { "type": "Point", "coordinates": [ 20.8830647, 52.2055334 ] } },
{ "type": "Feature", "properties": { "id": "node/8923134919" }, "geometry": { "type": "Point", "coordinates": [ 20.9572943, 52.1935575 ] } },
{ "type": "Feature", "properties": { "id": "node/8956439562" }, "geometry": { "type": "Point", "coordinates": [ 20.9039086, 52.1846135 ] } },
{ "type": "Feature", "properties": { "id": "node/8979094654" }, "geometry": { "type": "Point", "coordinates": [ 20.871821, 52.1951437 ] } },
{ "type": "Feature", "properties": { "id": "node/9004247475" }, "geometry": { "type": "Point", "coordinates": [ 20.8954376, 52.2311537 ] } },
{ "type": "Feature", "properties": { "id": "node/9044098772" }, "geometry": { "type": "Point", "coordinates": [ 21.0534928, 52.2079596 ] } },
{ "type": "Feature", "properties": { "id": "node/9063804823" }, "geometry": { "type": "Point", "coordinates": [ 20.9504877, 52.3374542 ] } },
{ "type": "Feature", "properties": { "id": "node/9077217743" }, "geometry": { "type": "Point", "coordinates": [ 20.9906978, 52.2308457 ] } },
{ "type": "Feature", "properties": { "id": "node/9097407470" }, "geometry": { "type": "Point", "coordinates": [ 20.9637267, 52.195112 ] } },
{ "type": "Feature", "properties": { "id": "node/9237975178" }, "geometry": { "type": "Point", "coordinates": [ 20.9718567, 52.2638255 ] } },
{ "type": "Feature", "properties": { "id": "node/9248725372" }, "geometry": { "type": "Point", "coordinates": [ 21.025529, 52.1995822 ] } },
{ "type": "Feature", "properties": { "id": "node/9249067817" }, "geometry": { "type": "Point", "coordinates": [ 20.9431295, 52.2237781 ] } },
{ "type": "Feature", "properties": { "id": "node/9308969404" }, "geometry": { "type": "Point", "coordinates": [ 20.9681459, 52.2575775 ] } },
{ "type": "Feature", "properties": { "id": "node/9309983217" }, "geometry": { "type": "Point", "coordinates": [ 20.895666, 52.1862621 ] } },
{ "type": "Feature", "properties": { "id": "node/9337146160" }, "geometry": { "type": "Point", "coordinates": [ 21.0505007, 52.2632793 ] } },
{ "type": "Feature", "properties": { "id": "node/9384421096" }, "geometry": { "type": "Point", "coordinates": [ 20.9864311, 52.2403103 ] } },
{ "type": "Feature", "properties": { "id": "node/9389252487" }, "geometry": { "type": "Point", "coordinates": [ 21.155701, 52.2161509 ] } },
{ "type": "Feature", "properties": { "id": "node/9557607337" }, "geometry": { "type": "Point", "coordinates": [ 21.084058, 52.2861362 ] } },
{ "type": "Feature", "properties": { "id": "node/9568926144" }, "geometry": { "type": "Point", "coordinates": [ 21.0003125, 52.2953017 ] } },
{ "type": "Feature", "properties": { "id": "node/9581345379" }, "geometry": { "type": "Point", "coordinates": [ 21.0541262, 52.1531224 ] } },
{ "type": "Feature", "properties": { "id": "node/9582392820" }, "geometry": { "type": "Point", "coordinates": [ 20.9779575, 52.2382688 ] } },
{ "type": "Feature", "properties": { "id": "node/9664485070" }, "geometry": { "type": "Point", "coordinates": [ 21.0464363, 52.1863616 ] } },
{ "type": "Feature", "properties": { "id": "node/9670754108" }, "geometry": { "type": "Point", "coordinates": [ 21.1788015, 52.2620743 ] } },
{ "type": "Feature", "properties": { "id": "node/9815470198" }, "geometry": { "type": "Point", "coordinates": [ 20.8685293, 52.1942763 ] } },
{ "type": "Feature", "properties": { "id": "node/9861955866" }, "geometry": { "type": "Point", "coordinates": [ 20.9558601, 52.2217122 ] } },
{ "type": "Feature", "properties": { "id": "node/9913372629" }, "geometry": { "type": "Point", "coordinates": [ 21.0222206, 52.2101634 ] } },
{ "type": "Feature", "properties": { "id": "node/9922747957" }, "geometry": { "type": "Point", "coordinates": [ 21.0372101, 52.2255205 ] } },
{ "type": "Feature", "properties": { "id": "node/9922872184" }, "geometry": { "type": "Point", "coordinates": [ 20.9569038, 52.2261952 ] } },
{ "type": "Feature", "properties": { "id": "node/9949713844" }, "geometry": { "type": "Point", "coordinates": [ 20.9842132, 52.2576092 ] } },
{ "type": "Feature", "properties": { "id": "node/9957357918" }, "geometry": { "type": "Point", "coordinates": [ 20.8988232, 52.2192414 ] } },
{ "type": "Feature", "properties": { "id": "node/9959937186" }, "geometry": { "type": "Point", "coordinates": [ 20.9968546, 52.2041468 ] } },
{ "type": "Feature", "properties": { "id": "node/9984073583" }, "geometry": { "type": "Point", "coordinates": [ 20.9246436, 52.2853401 ] } },
{ "type": "Feature", "properties": { "id": "node/10053166758" }, "geometry": { "type": "Point", "coordinates": [ 20.9014226, 52.2275901 ] } },
{ "type": "Feature", "properties": { "id": "node/10074540401" }, "geometry": { "type": "Point", "coordinates": [ 20.9519067, 52.3172077 ] } },
{ "type": "Feature", "properties": { "id": "node/10075459736" }, "geometry": { "type": "Point", "coordinates": [ 21.0281493, 52.240737 ] } },
{ "type": "Feature", "properties": { "id": "node/10082099262" }, "geometry": { "type": "Point", "coordinates": [ 20.9444335, 52.3233776 ] } },
{ "type": "Feature", "properties": { "id": "node/10172256820" }, "geometry": { "type": "Point", "coordinates": [ 20.945497, 52.3257753 ] } },
{ "type": "Feature", "properties": { "id": "node/10218776570" }, "geometry": { "type": "Point", "coordinates": [ 21.0374211, 52.3173287 ] } },
{ "type": "Feature", "properties": { "id": "node/10302498497" }, "geometry": { "type": "Point", "coordinates": [ 21.0136528, 52.1838027 ] } },
{ "type": "Feature", "properties": { "id": "node/10559289693" }, "geometry": { "type": "Point", "coordinates": [ 21.0247307, 52.2837063 ] } },
{ "type": "Feature", "properties": { "id": "node/10568343666" }, "geometry": { "type": "Point", "coordinates": [ 21.0224445, 52.2092546 ] } },
{ "type": "Feature", "properties": { "id": "node/10651796507" }, "geometry": { "type": "Point", "coordinates": [ 21.1386296, 52.192007 ] } },
{ "type": "Feature", "properties": { "id": "node/10741688659" }, "geometry": { "type": "Point", "coordinates": [ 21.0272281, 52.1504735 ] } },
{ "type": "Feature", "properties": { "id": "node/10763322469" }, "geometry": { "type": "Point", "coordinates": [ 21.0045667, 52.186202 ] } },
{ "type": "Feature", "properties": { "id": "node/10805166645" }, "geometry": { "type": "Point", "coordinates": [ 20.9370101, 52.2791119 ] } },
{ "type": "Feature", "properties": { "id": "node/10954549913" }, "geometry": { "type": "Point", "coordinates": [ 20.9458516, 52.1887893 ] } },
{ "type": "Feature", "properties": { "id": "node/10954549941" }, "geometry": { "type": "Point", "coordinates": [ 20.9495951, 52.3234851 ] } },
{ "type": "Feature", "properties": { "id": "node/10954549942" }, "geometry": { "type": "Point", "coordinates": [ 20.9456785, 52.2083329 ] } },
{ "type": "Feature", "properties": { "id": "node/10954549943" }, "geometry": { "type": "Point", "coordinates": [ 20.9755, 52.28113 ] } },
{ "type": "Feature", "properties": { "id": "node/10954549944" }, "geometry": { "type": "Point", "coordinates": [ 20.9251523, 52.2519595 ] } },
{ "type": "Feature", "properties": { "id": "node/10971606240" }, "geometry": { "type": "Point", "coordinates": [ 21.0565958, 52.1314523 ] } },
{ "type": "Feature", "properties": { "id": "node/11084409800" }, "geometry": { "type": "Point", "coordinates": [ 21.1609044, 52.2590726 ] } },
{ "type": "Feature", "properties": { "id": "node/11114124299" }, "geometry": { "type": "Point", "coordinates": [ 20.9144216, 52.2299478 ] } },
{ "type": "Feature", "properties": { "id": "node/11135943210" }, "geometry": { "type": "Point", "coordinates": [ 21.0981961, 52.240526 ] } },
{ "type": "Feature", "properties": { "id": "node/11181180613" }, "geometry": { "type": "Point", "coordinates": [ 21.0522006, 52.1499015 ] } },
{ "type": "Feature", "properties": { "id": "node/11230942670" }, "geometry": { "type": "Point", "coordinates": [ 20.9828687, 52.2506713 ] } },
{ "type": "Feature", "properties": { "id": "node/11230942671" }, "geometry": { "type": "Point", "coordinates": [ 20.9317379, 52.2960536 ] } },
{ "type": "Feature", "properties": { "id": "node/11299498900" }, "geometry": { "type": "Point", "coordinates": [ 20.9793484, 52.2600102 ] } },
{ "type": "Feature", "properties": { "id": "node/11423473381" }, "geometry": { "type": "Point", "coordinates": [ 21.0215664, 52.2367352 ] } },
{ "type": "Feature", "properties": { "id": "node/11434349338" }, "geometry": { "type": "Point", "coordinates": [ 20.9718853, 52.1709129 ] } },
{ "type": "Feature", "properties": { "id": "node/11434349342" }, "geometry": { "type": "Point", "coordinates": [ 20.9719063, 52.1711237 ] } },
{ "type": "Feature", "properties": { "id": "node/11456209309" }, "geometry": { "type": "Point", "coordinates": [ 20.9634274, 52.196846 ] } },
{ "type": "Feature", "properties": { "id": "node/11506893240" }, "geometry": { "type": "Point", "coordinates": [ 20.9091482, 52.1921048 ] } },
{ "type": "Feature", "properties": { "id": "node/11514817771" }, "geometry": { "type": "Point", "coordinates": [ 21.0927062, 52.2392454 ] } },
{ "type": "Feature", "properties": { "id": "node/11704801585" }, "geometry": { "type": "Point", "coordinates": [ 20.936965, 52.1988858 ] } },
{ "type": "Feature", "properties": { "id": "node/11747750326" }, "geometry": { "type": "Point", "coordinates": [ 20.9910874, 52.2249504 ] } },
{ "type": "Feature", "properties": { "id": "node/11818735295" }, "geometry": { "type": "Point", "coordinates": [ 20.9954533, 52.2541963 ] } },
{ "type": "Feature", "properties": { "id": "node/11838237243" }, "geometry": { "type": "Point", "coordinates": [ 21.0976461, 52.2391919 ] } },
{ "type": "Feature", "properties": { "id": "node/11838277658" }, "geometry": { "type": "Point", "coordinates": [ 21.0686604, 52.2296488 ] } },
{ "type": "Feature", "properties": { "id": "node/11841409538" }, "geometry": { "type": "Point", "coordinates": [ 20.9778127, 52.1822937 ] } },
{ "type": "Feature", "properties": { "id": "node/11920632197" }, "geometry": { "type": "Point", "coordinates": [ 20.9452286, 52.273209 ] } },
{ "type": "Feature", "properties": { "id": "node/11941713469" }, "geometry": { "type": "Point", "coordinates": [ 20.9926011, 52.1799622 ] } },
{ "type": "Feature", "properties": { "id": "node/11990773015" }, "geometry": { "type": "Point", "coordinates": [ 21.0200787, 52.2123238 ] } },
{ "type": "Feature", "properties": { "id": "node/12029120292" }, "geometry": { "type": "Point", "coordinates": [ 20.9919247, 52.1874634 ] } },
{ "type": "Feature", "properties": { "id": "node/12066951358" }, "geometry": { "type": "Point", "coordinates": [ 20.9566121, 52.2018874 ] } },
{ "type": "Feature", "properties": { "id": "node/12161470358" }, "geometry": { "type": "Point", "coordinates": [ 20.9051948, 52.2401527 ] } },
{ "type": "Feature", "properties": { "id": "node/12437567449" }, "geometry": { "type": "Point", "coordinates": [ 20.9502961, 52.212669 ] } },
{ "type": "Feature", "properties": { "id": "node/12551192454" }, "geometry": { "type": "Point", "coordinates": [ 21.0104606, 52.1744215 ] } },
{ "type": "Feature", "properties": { "id": "node/12593943237" }, "geometry": { "type": "Point", "coordinates": [ 20.9701592, 52.3101685 ] } },
{ "type": "Feature", "properties": { "id": "node/12691405209" }, "geometry": { "type": "Point", "coordinates": [ 21.2290969, 52.224686 ] } },
{ "type": "Feature", "properties": { "id": "node/12778174997" }, "geometry": { "type": "Point", "coordinates": [ 20.8886763, 52.1902133 ] } },
{ "type": "Feature", "properties": { "id": "node/12800566872" }, "geometry": { "type": "Point", "coordinates": [ 21.1019951, 52.2233822 ] } },
{ "type": "Feature", "properties": { "id": "node/12800764382" }, "geometry": { "type": "Point", "coordinates": [ 20.9769953, 52.208947 ] } },
{ "type": "Feature", "properties": { "id": "node/12961086099" }, "geometry": { "type": "Point", "coordinates": [ 21.0459697, 52.156715 ] } },
{ "type": "Feature", "properties": { "id": "node/12983034506" }, "geometry": { "type": "Point", "coordinates": [ 20.9628967, 52.2457046 ] } }
]
}
